{
"type": "FeatureCollection",
"name": "amostra1_linhas_corrigidas",
"crs": { "type": "name", "properties": { "name": "urn:ogc:def:crs:OGC:1.3:CRS84" } },
"features": [
{ "type": "Feature", "properties": { "id_linha": 1, "comprimento_m": 17.528, "classificacao": "reta", "n_pontos": 8, "desvio_relativo": 0.00244 }, "geometry": { "type": "LineString", "coordinates": [ [ -47.852539965985422, -21.176019682021323 ], [ -47.852552242086851, -21.176017649986331 ], [ -47.852564523266274, -21.176015641829082 ], [ -47.852576407307978, -21.176013607958815 ], [ -47.852588295252666, -21.176011592441412 ], [ -47.852600261122852, -21.176009337544873 ], [ -47.852612230102324, -21.176007097269423 ], [ -47.852623880415116, -21.176004990231512 ], [ -47.85263553284593, -21.176002893153719 ], [ -47.852647499583185, -21.176000642335406 ], [ -47.85265946769367, -21.175998397975313 ], [ -47.8526708008471, -21.175996589569184 ], [ -47.852682134460352, -21.175994783326093 ], [ -47.852693943049161, -21.175992683851693 ], [ -47.85270575131878, -21.175990582877759 ] ] } },
{ "type": "Feature", "properties": { "id_linha": 2, "comprimento_m": 35.112, "classificacao": "reta", "n_pontos": 15, "desvio_relativo": 0.00475 }, "geometry": { "type": "LineString", "coordinates": [ [ -47.852537207582863, -21.176050689393236 ], [ -47.852549172405844, -21.176048429561273 ], [ -47.852561142438979, -21.17604619422864 ], [ -47.852573185243052, -21.176044011891396 ], [ -47.852585232417688, -21.17604185010569 ], [ -47.852597038214043, -21.176039816641985 ], [ -47.852608847348961, -21.176037798877257 ], [ -47.852620261953547, -21.176035688507174 ], [ -47.85263167892078, -21.176033589247329 ], [ -47.852643802516276, -21.17603133931426 ], [ -47.852655927890602, -21.176029097746564 ], [ -47.852667726240675, -21.176027741645463 ], [ -47.852679525403616, -21.176026389367149 ], [ -47.852691285352215, -21.17602399011631 ], [ -47.852703045301048, -21.176021590868082 ], [ -47.852715139211554, -21.17601971989555 ], [ -47.852727232240106, -21.176017844777252 ], [ -47.85273834337918, -21.176015068446059 ], [ -47.852749452987787, -21.176012284920393 ], [ -47.852761111401925, -21.176009741053484 ], [ -47.852772767340433, -21.176007185547938 ], [ -47.852784577438449, -21.176005093162036 ], [ -47.852796384199628, -21.176002985087859 ], [ -47.852808351832685, -21.176000896780291 ], [ -47.852820315175379, -21.175998788301019 ], [ -47.852832128067767, -21.175996550750593 ], [ -47.852843935902634, -21.175994289421553 ], [ -47.852856371916303, -21.175992510093511 ], [ -47.852868801489343, -21.175990700483325 ] ] } },
{ "type": "Feature", "properties": { "id_linha": 3, "comprimento_m": 44.998, "classificacao": "reta", "n_pontos": 17, "desvio_relativo": 0.00588 }, "geometry": { "type": "LineString", "coordinates": [ [ -47.852537499092463, -21.176076658675111 ], [ -47.852549456139805, -21.176074995496371 ], [ -47.852561418470934, -21.176073357162739 ], [ -47.852572759463314, -21.176070794067154 ], [ -47.852584104600545, -21.176068250461995 ], [ -47.852596541231264, -21.176065999106545 ], [ -47.852608981811244, -21.17606376632175 ], [ -47.852620629944063, -21.176061807320441 ], [ -47.852632280692809, -21.176059860620246 ], [ -47.852644093986136, -21.176057308330602 ], [ -47.852655909171858, -21.176054764940414 ], [ -47.852667713231035, -21.176052960759193 ], [ -47.852679518299027, -21.176051161322391 ], [ -47.852691326641498, -21.176049060670934 ], [ -47.852703135165697, -21.176046960875201 ], [ -47.852714393216317, -21.176044930186507 ], [ -47.852725650685116, -21.176042896763324 ], [ -47.852738010600561, -21.176040732174311 ], [ -47.85275036889638, -21.176038559971328 ], [ -47.852761863345769, -21.176036535852521 ], [ -47.852773355590372, -21.176034501368179 ], [ -47.852785320758628, -21.176032559766103 ], [ -47.852797282701104, -21.176030602997884 ], [ -47.852809175585399, -21.176028214928849 ], [ -47.852821064361954, -21.176025807547077 ], [ -47.852832952808683, -21.176023794374906 ], [ -47.852844836347131, -21.176021758125628 ], [ -47.852856263574012, -21.176018994732004 ], [ -47.852867685327951, -21.176016205606821 ], [ -47.852879415518586, -21.176014343272257 ], [ -47.852891139323958, -21.17601245091582 ], [ -47.852908887089818, -21.176008832479219 ], [ -47.852926617566688, -21.176005132754849 ], [ -47.852944329304712, -21.176001344925808 ], [ -47.852962020854072, -21.175997462175228 ] ] } },
{ "type": "Feature", "properties": { "id_linha": 4, "comprimento_m": 60.769, "classificacao": "reta", "n_pontos": 18, "desvio_relativo": 0.01557 }, "geometry": { "type": "LineString", "coordinates": [ [ -47.852528250960738, -21.176111470038272 ], [ -47.852539738678331, -21.176109651710153 ], [ -47.852551231861923, -21.17610785908402 ], [ -47.85256350879272, -21.176105751764602 ], [ -47.852575791091169, -21.17610366968502 ], [ -47.852587440458954, -21.176101558173162 ], [ -47.852599093849079, -21.176099465575398 ], [ -47.852610274486558, -21.176097201744955 ], [ -47.852621458123565, -21.176094952019458 ], [ -47.852637620078625, -21.176091938731368 ], [ -47.852653786425464, -21.176088946095696 ], [ -47.852669956080874, -21.176085969019166 ], [ -47.852682074371387, -21.176084169038305 ], [ -47.852694193447647, -21.176082372752994 ], [ -47.852705536550154, -21.176079819573339 ], [ -47.852716879576171, -21.176077266035541 ], [ -47.852729000674302, -21.176075320951654 ], [ -47.852741120811331, -21.176073371349936 ], [ -47.852752462760385, -21.176070971053406 ], [ -47.852763803067781, -21.176068563039404 ], [ -47.852775610850138, -21.176066618049887 ], [ -47.852787416066057, -21.176064660994388 ], [ -47.852799554039009, -21.176061528819069 ], [ -47.852811688257994, -21.176058378994941 ], [ -47.852823186556009, -21.176056135506617 ], [ -47.852834680758896, -21.176053872764676 ], [ -47.85284664887871, -21.17605178672693 ], [ -47.85285861174173, -21.176049675973491 ], [ -47.852870816983575, -21.176047520753318 ], [ -47.852883015834912, -21.176045335487 ], [ -47.852898489246172, -21.176041403698026 ], [ -47.852913950297385, -21.17603741379661 ], [ -47.852929397997904, -21.176033361124968 ], [ -47.8529448313571, -21.176029241025262 ], [ -47.85296024938431, -21.176025048839698 ], [ -47.85297565443183, -21.176021579399201 ], [ -47.852991042528224, -21.176018030259229 ], [ -47.853006412712922, -21.17601439690333 ], [ -47.853021778896235, -21.17601077005456 ], [ -47.853037125260244, -21.176007050020662 ], [ -47.853052450845297, -21.176003232289688 ], [ -47.853067754691786, -21.17599931234971 ], [ -47.853083035840072, -21.17599528568881 ], [ -47.853098293330518, -21.175991147795056 ] ] } },
{ "type": "Feature", "properties": { "id_linha": 5, "comprimento_m": 60.24, "classificacao": "reta", "n_pontos": 13, "desvio_relativo": 0.01454 }, "geometry": { "type": "LineString", "coordinates": [ [ -47.852534817080439, -21.176138109684327 ], [ -47.852546632230947, -21.176135249491736 ], [ -47.852558453313371, -21.176132417192573 ], [ -47.852569631290777, -21.176130299150881 ], [ -47.852580813722653, -21.176128202055096 ], [ -47.852592932190134, -21.176126244590716 ], [ -47.852605054966695, -21.176124307388562 ], [ -47.852617018790916, -21.176122201138487 ], [ -47.852628985962532, -21.176120110628972 ], [ -47.852646536561927, -21.176116855796259 ], [ -47.85266409206325, -21.176113624015095 ], [ -47.852681651080232, -21.176110408767244 ], [ -47.852699212226611, -21.176107203534531 ], [ -47.852711177769031, -21.176105105365398 ], [ -47.852723143218853, -21.176103006762148 ], [ -47.852735107259186, -21.176101059835656 ], [ -47.852747070340172, -21.176099108399526 ], [ -47.852758724525486, -21.176096861229762 ], [ -47.852770376965402, -21.176094605854637 ], [ -47.852787032092358, -21.176091406815218 ], [ -47.852803681633617, -21.176088181515066 ], [ -47.852820324399602, -21.176084924360989 ], [ -47.852836959200758, -21.176081629759778 ], [ -47.852853584847516, -21.176078292118277 ], [ -47.852870200150306, -21.176074905843276 ], [ -47.852886803919553, -21.176071465341607 ], [ -47.852903394965679, -21.176067965020096 ], [ -47.852919972099116, -21.176064399285536 ], [ -47.852936534130272, -21.176060762544765 ], [ -47.852953079869579, -21.176057049204584 ], [ -47.852970340714215, -21.176052128389337 ], [ -47.852987580661008, -21.176047109319345 ], [ -47.853004798308831, -21.176041985406943 ], [ -47.853020046996498, -21.176038622941711 ], [ -47.853035276734815, -21.176035171381521 ], [ -47.853050486594796, -21.17603162635859 ], [ -47.853066942502331, -21.176027266299595 ], [ -47.853083372538464, -21.176022784600402 ], [ -47.853099775503757, -21.176018175621554 ] ] } },
{ "type": "Feature", "properties": { "id_linha": 6, "comprimento_m": 37.277, "classificacao": "reta", "n_pontos": 16, "desvio_relativo": 0.00657 }, "geometry": { "type": "LineString", "coordinates": [ [ -47.852542604838945, -21.176167449754633 ], [ -47.852554249589737, -21.176165633125471 ], [ -47.852565899865645, -21.176163842476164 ], [ -47.852577543091215, -21.176162176981201 ], [ -47.852589191021316, -21.176160533607593 ], [ -47.852601162131265, -21.176157828380983 ], [ -47.852613137503845, -21.176155143198734 ], [ -47.85262479117015, -21.176152735269063 ], [ -47.852636448009214, -21.176150342259049 ], [ -47.85264856739159, -21.176148389086343 ], [ -47.852660689256041, -21.176146447585332 ], [ -47.852672730566766, -21.17614449564611 ], [ -47.852684773443208, -21.176142551069972 ], [ -47.852696503989556, -21.176140373763904 ], [ -47.852708235199337, -21.176138199578592 ], [ -47.852720046627113, -21.176135875946301 ], [ -47.852731857883462, -21.176133551509384 ], [ -47.852743513630969, -21.176131153369166 ], [ -47.852755168383887, -21.176128750553946 ], [ -47.852766349408711, -21.176126646835673 ], [ -47.85277752879022, -21.176124535391899 ], [ -47.852789652742253, -21.176122445403191 ], [ -47.852801773901817, -21.176120342285788 ], [ -47.852813743144658, -21.176118103202651 ], [ -47.852825708764726, -21.176115847086919 ], [ -47.852837209043379, -21.1761134545876 ], [ -47.852848705143487, -21.176111042442635 ], [ -47.852860364893452, -21.17610850482135 ], [ -47.852872019508688, -21.17610594305863 ], [ -47.852883343935915, -21.176105043404419 ], [ -47.852894663069911, -21.176104118862281 ] ] } },
{ "type": "Feature", "properties": { "id_linha": 7, "comprimento_m": 57.315, "classificacao": "reta", "n_pontos": 18, "desvio_relativo": 0.00996 }, "geometry": { "type": "LineString", "coordinates": [ [ -47.852525496015502, -21.176202766019696 ], [ -47.8525374504827, -21.176201248973019 ], [ -47.852549411542164, -21.176199762923684 ], [ -47.852561533018225, -21.176197502970947 ], [ -47.852573660537921, -21.176195271436491 ], [ -47.852585462706038, -21.176193458320448 ], [ -47.852597269686164, -21.176191667831219 ], [ -47.852608919106324, -21.176189556535736 ], [ -47.85262057245648, -21.176187463720083 ], [ -47.852632065259264, -21.176185352662767 ], [ -47.852643561108117, -21.176183255929089 ], [ -47.852654588991378, -21.176180693862062 ], [ -47.8526656190162, -21.176178141866046 ], [ -47.852675924144442, -21.176176841937597 ], [ -47.852686230496836, -21.176175547765617 ], [ -47.852699412192514, -21.176172464888143 ], [ -47.852712594913697, -21.176169386834722 ], [ -47.852725778055422, -21.176166310760841 ], [ -47.85273710782598, -21.176164803001708 ], [ -47.852748437104864, -21.176163292931552 ], [ -47.852760094966953, -21.176160746418798 ], [ -47.852771751479324, -21.17615819356136 ], [ -47.852783405872316, -21.176155947347649 ], [ -47.852795058112733, -21.176153691014097 ], [ -47.852807027113919, -21.176151450783529 ], [ -47.85281899298068, -21.176149195816585 ], [ -47.852830333978979, -21.176146949327681 ], [ -47.852841671376645, -21.176144685910263 ], [ -47.852853641235001, -21.176142449711474 ], [ -47.852865606242631, -21.17614019070643 ], [ -47.852877714165089, -21.176139450077482 ], [ -47.852889816527501, -21.17613868330595 ], [ -47.852904580383104, -21.176135796208495 ], [ -47.852919334005797, -21.176132860999154 ], [ -47.852934076565184, -21.176129873773633 ], [ -47.852948807230923, -21.17612683062767 ], [ -47.852963525172619, -21.176123727657021 ], [ -47.852980568315964, -21.176120022661504 ], [ -47.852997591940685, -21.176116225894933 ], [ -47.853014594752196, -21.176112331270584 ], [ -47.853031575455951, -21.176108332701702 ], [ -47.853048532757356, -21.176104224101504 ], [ -47.853065465361858, -21.176099999383286 ] ] } },
{ "type": "Feature", "properties": { "id_linha": 8, "comprimento_m": 57.11, "classificacao": "reta", "n_pontos": 13, "desvio_relativo": 0.01105 }, "geometry": { "type": "LineString", "coordinates": [ [ -47.852531112042385, -21.176229991461007 ], [ -47.852541816416839, -21.176228014771834 ], [ -47.852552526241539, -21.176226063710502 ], [ -47.852564638077034, -21.176224549947598 ], [ -47.852576755889338, -21.176223064288116 ], [ -47.852588244013376, -21.176221247832661 ], [ -47.852599736805914, -21.176219453329189 ], [ -47.852611217613202, -21.176218235692847 ], [ -47.852622702240637, -21.17621703601921 ], [ -47.852640637919386, -21.176214858291239 ], [ -47.852658282701341, -21.176210886406846 ], [ -47.852675288449639, -21.176207419253231 ], [ -47.852692298152689, -21.176203970697706 ], [ -47.852709310535062, -21.176200534743174 ], [ -47.852726324321281, -21.176197105392529 ], [ -47.852743338235896, -21.176193676648648 ], [ -47.852760351003468, -21.176190242514473 ], [ -47.852777361348515, -21.176186796992898 ], [ -47.852794367995585, -21.176183334086812 ], [ -47.852811369669219, -21.176179847799141 ], [ -47.852823018817716, -21.176178051831346 ], [ -47.852834664695514, -21.176176240486068 ], [ -47.852846481091866, -21.176173702742066 ], [ -47.852858293188163, -21.1761711447812 ], [ -47.852870711229535, -21.176170705624891 ], [ -47.852883123973541, -21.176170241560893 ], [ -47.852898846084955, -21.176166833203343 ], [ -47.85291455725298, -21.176163373393969 ], [ -47.852930256461747, -21.176159857356314 ], [ -47.852945942695357, -21.176156280313865 ], [ -47.852961614937939, -21.176152637490112 ], [ -47.852977272173597, -21.176148924108592 ], [ -47.852992913386444, -21.17614513539278 ], [ -47.853008537560584, -21.176141266566184 ], [ -47.853023800086568, -21.176138514567167 ], [ -47.8530390449408, -21.176135679479909 ], [ -47.853054271214425, -21.176132757031159 ], [ -47.853069477998581, -21.176129742947662 ] ] } },
{ "type": "Feature", "properties": { "id_linha": 9, "comprimento_m": 51.233, "classificacao": "reta", "n_pontos": 12, "desvio_relativo": 0.01293 }, "geometry": { "type": "LineString", "coordinates": [ [ -47.852572568474066, -21.176255248766189 ], [ -47.852586106166136, -21.176252490280174 ], [ -47.85259965086339, -21.176249764734099 ], [ -47.852613201922445, -21.176247069102743 ], [ -47.852624380376177, -21.176244953262525 ], [ -47.852635562346862, -21.176242853960009 ], [ -47.852647692929509, -21.176240003586514 ], [ -47.852659826828855, -21.176237168809859 ], [ -47.852671488713284, -21.176234166271822 ], [ -47.85268315282606, -21.176231174213289 ], [ -47.852695190357935, -21.176229521086473 ], [ -47.852707229285308, -21.176227874522134 ], [ -47.852718805757206, -21.176225471923857 ], [ -47.852730382740781, -21.176223071732924 ], [ -47.852743286930931, -21.176221283737931 ], [ -47.852756190716867, -21.176219493843448 ], [ -47.852774065316609, -21.176216500015865 ], [ -47.852791936643548, -21.176213490802507 ], [ -47.852809803249272, -21.17621045939314 ], [ -47.852827663685382, -21.176207398977546 ], [ -47.852845516503464, -21.176204302745479 ], [ -47.852863360255114, -21.176201163886716 ], [ -47.85288119349191, -21.176197975591013 ], [ -47.852897502098791, -21.176193049970902 ], [ -47.852913798994649, -21.176188069291314 ], [ -47.852930082985665, -21.176183027939057 ], [ -47.852944767436142, -21.176181581839778 ], [ -47.852959440598347, -21.176180082665176 ], [ -47.852974101702856, -21.176178526797568 ], [ -47.852988749980248, -21.176176910619297 ], [ -47.853003384661093, -21.176175230512687 ], [ -47.853020127270256, -21.176169959029469 ], [ -47.853036848180317, -21.176164585524717 ], [ -47.853053546089598, -21.176159103878248 ] ] } },
{ "type": "Feature", "properties": { "id_linha": 10, "comprimento_m": 58.528, "classificacao": "reta", "n_pontos": 14, "desvio_relativo": 0.00616 }, "geometry": { "type": "LineString", "coordinates": [ [ -47.852547978871158, -21.176286000592977 ], [ -47.852560423535209, -21.176282995405678 ], [ -47.852572875467693, -21.176280024396174 ], [ -47.852584204423593, -21.176278354472363 ], [ -47.85259553840406, -21.176276708174665 ], [ -47.852607195190728, -21.176273998265884 ], [ -47.852618856667846, -21.176271310413036 ], [ -47.852630814420635, -21.176269650481249 ], [ -47.852642776074426, -21.176268008892659 ], [ -47.852654898984646, -21.176265755656292 ], [ -47.852667025079192, -21.176263517393853 ], [ -47.852678832448582, -21.176261412096316 ], [ -47.852690641976942, -21.17625931695132 ], [ -47.852702452664197, -21.176256989797036 ], [ -47.852714264679001, -21.176254668886166 ], [ -47.852726550827072, -21.176252050780302 ], [ -47.852738837473972, -21.1762494350216 ], [ -47.852750176861612, -21.176247180929547 ], [ -47.852761515885135, -21.176244925126777 ], [ -47.85277348589603, -21.176242531309256 ], [ -47.85278545463698, -21.176240131522086 ], [ -47.852796951885672, -21.176237883041271 ], [ -47.852808447164094, -21.176235625297707 ], [ -47.852819789650354, -21.176233227472913 ], [ -47.852831129442244, -21.176230816980883 ], [ -47.852847945987762, -21.176227852379192 ], [ -47.852864754658626, -21.176224850754235 ], [ -47.852881554242167, -21.176221806404158 ], [ -47.852898343525688, -21.176218713627112 ], [ -47.852915121296519, -21.17621556672125 ], [ -47.852931886341963, -21.176212359984721 ], [ -47.85294863744933, -21.176209087715701 ], [ -47.852965373405922, -21.176205744212325 ], [ -47.852982092999049, -21.176202323772767 ], [ -47.852998795016013, -21.176198820695177 ], [ -47.85301547824411, -21.176195229277717 ], [ -47.853032141470649, -21.176191543818529 ], [ -47.853048783482912, -21.176187758615793 ], [ -47.8530654030682, -21.176183867967662 ], [ -47.853081999013796, -21.176179866172298 ], [ -47.853098570107001, -21.176175747527861 ] ] } },
{ "type": "Feature", "properties": { "id_linha": 11, "comprimento_m": 59.047, "classificacao": "reta", "n_pontos": 18, "desvio_relativo": 0.0117 }, "geometry": { "type": "LineString", "coordinates": [ [ -47.852536593826457, -21.176316011609043 ], [ -47.8525480982441, -21.176312846984587 ], [ -47.852559609590315, -21.176309714939869 ], [ -47.852571100986303, -21.176307597230082 ], [ -47.852582598260042, -21.176305507158382 ], [ -47.852594704571239, -21.176304442308417 ], [ -47.852606816308516, -21.176303402972032 ], [ -47.852622876220487, -21.17629987319933 ], [ -47.852638944333158, -21.176296381988831 ], [ -47.852655019561823, -21.176292924240197 ], [ -47.852666192728464, -21.176291258440262 ], [ -47.85267736838145, -21.176289604331817 ], [ -47.852689650802716, -21.176287206149311 ], [ -47.852701935377141, -21.176284818092313 ], [ -47.852713741336217, -21.176282864460159 ], [ -47.85272554840747, -21.176280916058523 ], [ -47.852737827892561, -21.176278820681613 ], [ -47.852750107660995, -21.176276726638289 ], [ -47.852761608080669, -21.176274176446665 ], [ -47.852773107933842, -21.176271623592939 ], [ -47.852784756134213, -21.176269823138604 ], [ -47.85279640297361, -21.17626801628613 ], [ -47.852809001887351, -21.176265632948326 ], [ -47.852821598200208, -21.176263237382908 ], [ -47.852832626605945, -21.176260836048446 ], [ -47.852843652246122, -21.17625842171196 ], [ -47.852857190940767, -21.176256353915829 ], [ -47.852870724438603, -21.176254261686218 ], [ -47.852885787989756, -21.176252133586768 ], [ -47.852900843516515, -21.176249967759055 ], [ -47.852915890165924, -21.176247760192545 ], [ -47.852930927085012, -21.176245506876715 ], [ -47.852945953420793, -21.176243203801029 ], [ -47.852960774677776, -21.176239954184446 ], [ -47.852975583651521, -21.176236646816061 ], [ -47.852990379489654, -21.176233277688265 ], [ -47.85300730733551, -21.176229689067341 ], [ -47.853024215724083, -21.17622600896388 ], [ -47.853041103391071, -21.176222231433467 ], [ -47.853058257201802, -21.176217773275244 ], [ -47.853075386638913, -21.176213200519616 ], [ -47.853092490347919, -21.176208506798258 ] ] } },
{ "type": "Feature", "properties": { "id_linha": 12, "comprimento_m": 58.073, "classificacao": "reta", "n_pontos": 18, "desvio_relativo": 0.01154 }, "geometry": { "type": "LineString", "coordinates": [ [ -47.85253842882895, -21.17634408816572 ], [ -47.85254913872447, -21.176341662483921 ], [ -47.852559854654395, -21.176339265176932 ], [ -47.85257103006952, -21.176337293327496 ], [ -47.852582211221829, -21.176335348455073 ], [ -47.852594482088072, -21.176333687456836 ], [ -47.852606758874131, -21.176332054294157 ], [ -47.852618570733704, -21.176329495172013 ], [ -47.852630387393454, -21.176326958621601 ], [ -47.852642036895737, -21.176324847666265 ], [ -47.852653690182819, -21.176322754508053 ], [ -47.852665970105612, -21.176320502872393 ], [ -47.852678253313677, -21.176318266685296 ], [ -47.852689984092599, -21.176316011261832 ], [ -47.852701717030428, -21.176313765990766 ], [ -47.852713134135087, -21.176311508978003 ], [ -47.852724552510125, -21.176309257939845 ], [ -47.85273651582299, -21.17630730752278 ], [ -47.85274847966182, -21.176305359579988 ], [ -47.852764228019936, -21.176302365864498 ], [ -47.852779975536386, -21.176299368193938 ], [ -47.852795721206711, -21.176296361845569 ], [ -47.852807687752367, -21.176294268325453 ], [ -47.852819652225776, -21.176292165063067 ], [ -47.852831780194236, -21.17628977729073 ], [ -47.852843905101764, -21.176287375127689 ], [ -47.85285555247205, -21.176285729066397 ], [ -47.852867196273344, -21.176284066224976 ], [ -47.852884130550166, -21.176281651482654 ], [ -47.852901055231833, -21.17627919162689 ], [ -47.852917969105491, -21.176276680955091 ], [ -47.852934870958293, -21.176274113764634 ], [ -47.852948671523343, -21.176271064159838 ], [ -47.852962462323653, -21.176267968644616 ], [ -47.852976242670401, -21.176264823980208 ], [ -47.852990011874738, -21.176261626927925 ], [ -47.853005057183971, -21.176257498767082 ], [ -47.853020087202729, -21.176253298715764 ], [ -47.853035101009112, -21.176249022439361 ], [ -47.853051922105273, -21.176245792349441 ], [ -47.853068721261636, -21.176242459104319 ], [ -47.853085497252742, -21.176239016942116 ] ] } },
{ "type": "Feature", "properties": { "id_linha": 13, "comprimento_m": 57.137, "classificacao": "reta", "n_pontos": 18, "desvio_relativo": 0.00719 }, "geometry": { "type": "LineString", "coordinates": [ [ -47.8525412119916, -21.176371728133791 ], [ -47.852552164974576, -21.176368707237259 ], [ -47.852563124479531, -21.176365717008565 ], [ -47.852575005315238, -21.17636382625161 ], [ -47.852586892646848, -21.17636196603906 ], [ -47.852598936654751, -21.176359630947626 ], [ -47.852610986542516, -21.17635732350427 ], [ -47.852622087067523, -21.176355130382063 ], [ -47.852633191858295, -21.176352957318421 ], [ -47.852645624443497, -21.176351003449483 ], [ -47.852658061371578, -21.176349070001613 ], [ -47.852669561945696, -21.176346362209301 ], [ -47.852681065526546, -21.176343668556139 ], [ -47.852693500979555, -21.176341569867212 ], [ -47.852705938908151, -21.176339482819603 ], [ -47.852717422925124, -21.176338121924655 ], [ -47.852728908229736, -21.176336767084774 ], [ -47.852740718332122, -21.176334516305701 ], [ -47.85275252900751, -21.176332268222168 ], [ -47.852764023466769, -21.176330164901426 ], [ -47.852775517678133, -21.176328060416314 ], [ -47.852787644705941, -21.176325668210193 ], [ -47.852799770560161, -21.176323270487437 ], [ -47.852811438432255, -21.176319979463212 ], [ -47.852823104306573, -21.176316679047751 ], [ -47.852838735317931, -21.176314996635206 ], [ -47.852854361335687, -21.176313290744368 ], [ -47.852869981426522, -21.176311556986914 ], [ -47.852887085756095, -21.176308176186424 ], [ -47.852904180267693, -21.17630474922591 ], [ -47.852921263668456, -21.176301270026613 ], [ -47.852938334665545, -21.176297732509695 ], [ -47.852951162590124, -21.17629444116546 ], [ -47.852963982059002, -21.176291110065783 ], [ -47.852976792506873, -21.176287736552769 ], [ -47.852991213625096, -21.176285607992426 ], [ -47.85300562240355, -21.176283421413522 ], [ -47.853020018090881, -21.176281173283314 ], [ -47.853034399935716, -21.176278860069019 ], [ -47.853049233683834, -21.176275035952063 ], [ -47.85306405040626, -21.176271131785636 ], [ -47.853078849228226, -21.17626714345684 ] ] } },
{ "type": "Feature", "properties": { "id_linha": 14, "comprimento_m": 59.517, "classificacao": "reta", "n_pontos": 20, "desvio_relativo": 0.0113 }, "geometry": { "type": "LineString", "coordinates": [ [ -47.852521568908841, -21.176408656251244 ], [ -47.852532923441508, -21.176404890266525 ], [ -47.852544286050055, -21.176401162256532 ], [ -47.852555947264854, -21.176397998210842 ], [ -47.852567615944075, -21.176394869264485 ], [ -47.852580041377465, -21.17639335667355 ], [ -47.852592473853221, -21.176391877196259 ], [ -47.852603808513919, -21.176389759142506 ], [ -47.852615148416056, -21.176387665734872 ], [ -47.852627103762671, -21.176386152755747 ], [ -47.852639063969463, -21.176384662629655 ], [ -47.852650869464263, -21.17638262763105 ], [ -47.852662678950054, -21.17638061139904 ], [ -47.852674252221149, -21.176378352006996 ], [ -47.852685828557888, -21.176376107030716 ], [ -47.852697796737367, -21.176373704559701 ], [ -47.852709767330289, -21.176371313438043 ], [ -47.852721270619256, -21.176368460097382 ], [ -47.852732775357566, -21.176365613573218 ], [ -47.852744494326259, -21.176364331583599 ], [ -47.852756213924927, -21.176363052556713 ], [ -47.852768027307597, -21.176360579734176 ], [ -47.852779840511218, -21.176358106071376 ], [ -47.85279102408677, -21.176355776815583 ], [ -47.8528022067539, -21.176353443289873 ], [ -47.852814338053143, -21.176350754548718 ], [ -47.852826467379231, -21.176348056531744 ], [ -47.852838436218995, -21.176345815474974 ], [ -47.852850402275472, -21.176343561332867 ], [ -47.852862656589636, -21.17634356383947 ], [ -47.852874907359087, -21.176343549678865 ], [ -47.852890608301706, -21.176339171040386 ], [ -47.852906300888449, -21.176334753117342 ], [ -47.85292198406875, -21.176330290970057 ], [ -47.852937656792015, -21.1763257796589 ], [ -47.852951536875501, -21.176322207923132 ], [ -47.852965407326984, -21.176318590901563 ], [ -47.852979267430023, -21.176314925225583 ], [ -47.85299429948099, -21.176311684525952 ], [ -47.853009317884627, -21.176308379660902 ], [ -47.853024321753679, -21.176305006458712 ], [ -47.853038274068226, -21.176302843958233 ], [ -47.853052212738838, -21.176300617307209 ], [ -47.853066137081932, -21.176298323291714 ], [ -47.853080046413943, -21.17629595869774 ] ] } },
{ "type": "Feature", "properties": { "id_linha": 15, "comprimento_m": 59.86, "classificacao": "reta", "n_pontos": 16, "desvio_relativo": 0.00991 }, "geometry": { "type": "LineString", "coordinates": [ [ -47.852526517996871, -21.176438858468259 ], [ -47.852538496500514, -21.176435396383283 ], [ -47.852550483874197, -21.176431976007063 ], [ -47.852562604491624, -21.176429711937072 ], [ -47.852574732904699, -21.176427484523121 ], [ -47.852586074840119, -21.17642476744113 ], [ -47.85259742295424, -21.176422079412607 ], [ -47.852609854593737, -21.176420121074383 ], [ -47.852622292478436, -21.176418192101778 ], [ -47.852633941527792, -21.176416078986957 ], [ -47.852645595281004, -21.176413987990571 ], [ -47.852657401745304, -21.17641187838775 ], [ -47.852669212200915, -21.176409787553023 ], [ -47.852681330236976, -21.176407907112068 ], [ -47.852693451551055, -21.17640604208518 ], [ -47.852705108584352, -21.176403412443587 ], [ -47.852716767896602, -21.176400793519118 ], [ -47.852728261541429, -21.176398686347877 ], [ -47.852739756577378, -21.176396585718784 ], [ -47.852751409598099, -21.176394332974841 ], [ -47.85276306324554, -21.176392083179028 ], [ -47.852778292275516, -21.176388733676916 ], [ -47.852793520758475, -21.176385381605449 ], [ -47.852808747769366, -21.176382022615226 ], [ -47.852821657722792, -21.176379865894688 ], [ -47.852834565444979, -21.176377698684451 ], [ -47.852846286043373, -21.17637642434736 ], [ -47.852858004013896, -21.176375137654933 ], [ -47.852875019050096, -21.176372734272061 ], [ -47.852892026402522, -21.176370294762872 ], [ -47.852909024841907, -21.176367813347596 ], [ -47.852926013139005, -21.176365284246472 ], [ -47.852942990064548, -21.176362701679746 ], [ -47.852959369631201, -21.176359194766651 ], [ -47.852975736019694, -21.176355625894502 ], [ -47.852992088083155, -21.176351989671033 ], [ -47.853008424674762, -21.176348280703976 ], [ -47.853024744647634, -21.176344493601057 ], [ -47.853041046854926, -21.176340622970056 ], [ -47.853057330149767, -21.176336663418656 ], [ -47.853073593385297, -21.176332609554628 ], [ -47.853089835414636, -21.176328455985693 ] ] } },
{ "type": "Feature", "properties": { "id_linha": 16, "comprimento_m": 59.714, "classificacao": "reta", "n_pontos": 18, "desvio_relativo": 0.00953 }, "geometry": { "type": "LineString", "coordinates": [ [ -47.852529258581797, -21.17646978097866 ], [ -47.85254093745484, -21.176465196032296 ], [ -47.852552625255591, -21.176460653066496 ], [ -47.852563807836034, -21.176458081646587 ], [ -47.852574997321533, -21.17645554269529 ], [ -47.852587273350835, -21.176453431015055 ], [ -47.852599556603138, -21.176451353298251 ], [ -47.852611672278606, -21.176449540899725 ], [ -47.8526237940249, -21.176447757046869 ], [ -47.852635599994827, -21.176445645109034 ], [ -47.852647410949999, -21.176443556612657 ], [ -47.852659843446901, -21.176441602295967 ], [ -47.852672280477002, -21.176439669295245 ], [ -47.85268392257926, -21.176438156727659 ], [ -47.852695567801284, -21.1764366588298 ], [ -47.852707386614654, -21.176433657450929 ], [ -47.85271920794488, -21.176430667908065 ], [ -47.852730715047294, -21.176427515868191 ], [ -47.852742223720668, -21.176424371216854 ], [ -47.852754027937038, -21.176422567647144 ], [ -47.852765832900815, -21.176420767592752 ], [ -47.852777333083765, -21.176418216240418 ], [ -47.852788833193927, -21.176415664547434 ], [ -47.852800488910233, -21.176413266165213 ], [ -47.852812143734148, -21.176410863588547 ], [ -47.852824265292902, -21.176408920551484 ], [ -47.852836385018215, -21.17640696889498 ], [ -47.852848960828702, -21.176406376530739 ], [ -47.852861533827109, -21.176405770944509 ], [ -47.852877972965942, -21.176401878661 ], [ -47.852894404867193, -21.176397952350651 ], [ -47.852910828355355, -21.176393986486399 ], [ -47.852927242254907, -21.176389975541184 ], [ -47.852942571457938, -21.17638720820409 ], [ -47.852957890592528, -21.17638439352859 ], [ -47.852973198737743, -21.176381527184645 ], [ -47.852988494972649, -21.176378604842171 ], [ -47.85300554851964, -21.176375617384718 ], [ -47.853022584957309, -21.176372549484064 ], [ -47.853039603021813, -21.176369395197906 ], [ -47.85305660144931, -21.176366148584009 ], [ -47.85307357897598, -21.176362803700137 ], [ -47.853090534337966, -21.176359354604003 ] ] } },
{ "type": "Feature", "properties": { "id_linha": 17, "comprimento_m": 59.186, "classificacao": "reta", "n_pontos": 17, "desvio_relativo": 0.00751 }, "geometry": { "type": "LineString", "coordinates": [ [ -47.852538467622168, -21.176498540770162 ], [ -47.852550133165508, -21.176495001279815 ], [ -47.852561807206627, -21.176491501747854 ], [ -47.852573619618838, -21.176488786865953 ], [ -47.852585439620448, -21.176486107670581 ], [ -47.852597018917677, -21.176483243358202 ], [ -47.852608604725908, -21.176480409661853 ], [ -47.852620486892981, -21.176478445971469 ], [ -47.85263237484476, -21.1764765094815 ], [ -47.852644567589067, -21.17647484942907 ], [ -47.85265676545891, -21.176473213477436 ], [ -47.852668657143823, -21.176470582165589 ], [ -47.852680552992318, -21.176467970432203 ], [ -47.852692427775239, -21.176466684396711 ], [ -47.852704305692775, -21.176465413100608 ], [ -47.852715808561996, -21.176462557755446 ], [ -47.852727313733624, -21.176459713237811 ], [ -47.85273881121325, -21.176457307467825 ], [ -47.852750310162833, -21.17645490861096 ], [ -47.852761957355504, -21.176453103359066 ], [ -47.852773605229054, -21.176451301309655 ], [ -47.852785423434021, -21.176448455368924 ], [ -47.852797241503033, -21.176445608790772 ], [ -47.852809060145169, -21.176442764907083 ], [ -47.852820877775684, -21.176439916268716 ], [ -47.852832834534134, -21.176438568203263 ], [ -47.852844789465969, -21.176437211550027 ], [ -47.852861744256771, -21.176434312951326 ], [ -47.852878693183271, -21.176431386781825 ], [ -47.852895635006711, -21.176428427217026 ], [ -47.852912568488314, -21.176425428432463 ], [ -47.852929492389322, -21.176422384603665 ], [ -47.852946862098563, -21.176418434206319 ], [ -47.852964218808744, -21.176414422692655 ], [ -47.852981561141043, -21.176410343579789 ], [ -47.852998887716652, -21.176406190384796 ], [ -47.853016197156762, -21.17640195662484 ], [ -47.853033488082552, -21.176397635816997 ], [ -47.853048842737053, -21.176395153304981 ], [ -47.853064181343605, -21.176392595339678 ], [ -47.853079502987363, -21.176389957619669 ], [ -47.853094806753461, -21.17638723584346 ] ] } },
{ "type": "Feature", "properties": { "id_linha": 18, "comprimento_m": 47.363, "classificacao": "reta", "n_pontos": 13, "desvio_relativo": 0.01618 }, "geometry": { "type": "LineString", "coordinates": [ [ -47.852632486081717, -21.176504267403022 ], [ -47.852643662083985, -21.176502298259294 ], [ -47.852654842671129, -21.176500350674338 ], [ -47.852666864739518, -21.17649774492244 ], [ -47.852678891328836, -21.176495160429198 ], [ -47.852690317569724, -21.176494142752784 ], [ -47.852701746935821, -21.176493139771345 ], [ -47.852713398979958, -21.176490882404845 ], [ -47.8527250536184, -21.176488637237902 ], [ -47.85273734001558, -21.17648594106857 ], [ -47.85274962838384, -21.17648325416884 ], [ -47.852761285133028, -21.176480702316912 ], [ -47.852772942804492, -21.176478154803053 ], [ -47.85278498584578, -21.176476131730173 ], [ -47.852797028974798, -21.17647410907097 ], [ -47.852808145531313, -21.176470883151858 ], [ -47.852819261394032, -21.176467653972587 ], [ -47.852831373168058, -21.176466456431978 ], [ -47.852843483336777, -21.176465251343956 ], [ -47.852857915388277, -21.176462657208997 ], [ -47.852872343680737, -21.176460045401345 ], [ -47.852886767445995, -21.176457412309297 ], [ -47.852901185915933, -21.176454754321149 ], [ -47.852915598322383, -21.176452067825235 ], [ -47.852930330829864, -21.17644961343737 ], [ -47.852945055446128, -21.17644712194782 ], [ -47.852959771360638, -21.176444589545532 ], [ -47.852974477762842, -21.176442012419496 ], [ -47.852991652071573, -21.176437571377825 ], [ -47.853008810458363, -21.176433055477446 ], [ -47.85302595156498, -21.176428458332268 ], [ -47.853043074033174, -21.176423773556142 ], [ -47.853060176504719, -21.176418994762944 ], [ -47.853077257621351, -21.176414115566537 ] ] } },
{ "type": "Feature", "properties": { "id_linha": 19, "comprimento_m": 35.546, "classificacao": "reta", "n_pontos": 9, "desvio_relativo": 0.00601 }, "geometry": { "type": "LineString", "coordinates": [ [ -47.852748667316781, -21.176508910333069 ], [ -47.852760789302884, -21.176506810969663 ], [ -47.852772912486152, -21.176504717236497 ], [ -47.852784799337627, -21.176502617251689 ], [ -47.852796686476999, -21.176500518621776 ], [ -47.852809137061385, -21.176497382885675 ], [ -47.852821586971316, -21.176494243980546 ], [ -47.852833382588891, -21.176493191476087 ], [ -47.852845176811272, -21.176492132412061 ], [ -47.852862345992371, -21.176489242196787 ], [ -47.852879509966613, -21.176486327501877 ], [ -47.852896667449691, -21.176483382288875 ], [ -47.852913817157358, -21.176480400519313 ], [ -47.852929527552178, -21.176476946083461 ], [ -47.852945229184364, -21.176473450449638 ], [ -47.852960921038367, -21.176469908843032 ], [ -47.852975504474131, -21.176467094403403 ], [ -47.852990077911606, -21.176464232955261 ], [ -47.853004640551724, -21.176461320741627 ], [ -47.853019191595465, -21.176458354005554 ], [ -47.853035433404372, -21.176455641943498 ], [ -47.85305165891517, -21.176452853252318 ], [ -47.853067867041581, -21.176449982824401 ], [ -47.853084056697249, -21.176447025552154 ] ] } }
]
}
