{
"type": "FeatureCollection",
"name": "amostra2_linhas_corrigidas",
"crs": { "type": "name", "properties": { "name": "urn:ogc:def:crs:OGC:1.3:CRS84" } },
"features": [
{ "type": "Feature", "properties": { "id_linha": 1, "comprimento_m": 40.052, "classificacao": "reta", "n_pontos": 39, "desvio_relativo": 0.01971 }, "geometry": { "type": "LineString", "coordinates": [ [ -47.135135577457518, -25.578866294829332 ], [ -47.135132174082067, -25.578862794926586 ], [ -47.135128776123757, -25.578859290081301 ], [ -47.135125241187204, -25.578855725550749 ], [ -47.135121711381501, -25.578852156338879 ], [ -47.135118176746495, -25.578848591533617 ], [ -47.135114646640695, -25.57884502259596 ], [ -47.135111046012589, -25.57884145677205 ], [ -47.135107449380492, -25.578837887302257 ], [ -47.135103647047622, -25.578834570629571 ], [ -47.135099848031693, -25.578831250930559 ], [ -47.135096375828454, -25.578828063608082 ], [ -47.135092906024525, -25.578824874096529 ], [ -47.135088775270994, -25.578821364313264 ], [ -47.135084646970405, -25.578817852291984 ], [ -47.135081110633379, -25.578814537850363 ], [ -47.135077575709097, -25.578811222119782 ], [ -47.135073907915853, -25.578807842954653 ], [ -47.135070241039557, -25.578804462952991 ], [ -47.135066573132264, -25.578801114993379 ], [ -47.135062905555479, -25.578797766732297 ], [ -47.1350588269094, -25.57879417757837 ], [ -47.135054747938163, -25.578790588721212 ], [ -47.13505116200529, -25.578787351361598 ], [ -47.13504757525196, -25.578784114750665 ], [ -47.135043775738922, -25.578780764406972 ], [ -47.135039974730809, -25.578777415427453 ], [ -47.135036110538458, -25.578773969563152 ], [ -47.135032244138472, -25.578770525713182 ], [ -47.135028974707033, -25.578767212673903 ], [ -47.135025702969642, -25.578763901738668 ], [ -47.135021968468557, -25.578760708815636 ], [ -47.135018230893394, -25.578757518697472 ], [ -47.135014172385617, -25.578753817625714 ], [ -47.135010109271718, -25.578750120756737 ], [ -47.135006642809152, -25.578746741594188 ], [ -47.135003172177079, -25.578743366236026 ], [ -47.134999240760884, -25.578740107083874 ], [ -47.134995304175355, -25.57873685264833 ], [ -47.134991711066746, -25.578733093363411 ], [ -47.134988111834808, -25.578729339665522 ], [ -47.134984778624094, -25.578725961387367 ], [ -47.134981439785534, -25.578722588244172 ], [ -47.134977706998846, -25.578719393759048 ], [ -47.134973967717819, -25.578716205199449 ], [ -47.134970305826073, -25.57871269625074 ], [ -47.134966636332649, -25.578709194237913 ], [ -47.134963039154961, -25.5787058118798 ], [ -47.134959434205221, -25.578702436613035 ], [ -47.134955704949547, -25.578699052300983 ], [ -47.134951967038127, -25.578695675886543 ], [ -47.134948240794209, -25.578692102220696 ], [ -47.134944504768967, -25.578688537479444 ], [ -47.134940507812821, -25.578685401301875 ], [ -47.134936500994186, -25.578682274122936 ], [ -47.134932705572226, -25.578678951153059 ], [ -47.134928899678847, -25.578675637737426 ], [ -47.134925232304823, -25.578672631409525 ], [ -47.134921555244958, -25.578669633919077 ], [ -47.134917424092201, -25.578666684327381 ], [ -47.134913281536939, -25.578663745139416 ], [ -47.134909350055842, -25.578660734858889 ], [ -47.134905407023901, -25.578657735117446 ], [ -47.134901478619106, -25.578654535424274 ], [ -47.134897537408968, -25.578651347414816 ], [ -47.134893607426463, -25.578648273565552 ], [ -47.134889664531023, -25.57864521149817 ], [ -47.13488546651979, -25.578642386082247 ], [ -47.13488125504383, -25.578639572951619 ], [ -47.134877456002364, -25.578636626498614 ], [ -47.134873643944921, -25.578633691921489 ], [ -47.134869714805305, -25.578630617304054 ], [ -47.134865771071155, -25.578627556002786 ], [ -47.134861774179122, -25.578624606375858 ], [ -47.134857762413844, -25.578621670319372 ], [ -47.134853737576449, -25.578618404564473 ], [ -47.134849695659277, -25.578615154393283 ] ] } },
{ "type": "Feature", "properties": { "id_linha": 2, "comprimento_m": 38.836, "classificacao": "reta", "n_pontos": 38, "desvio_relativo": 0.01988 }, "geometry": { "type": "LineString", "coordinates": [ [ -47.135141676339948, -25.578855915439938 ], [ -47.135138270759342, -25.578852604156275 ], [ -47.135134870110875, -25.578849288372567 ], [ -47.135131205747683, -25.578845470660099 ], [ -47.135127546854591, -25.578841647956775 ], [ -47.135123811107292, -25.578838269560059 ], [ -47.135120079655998, -25.578834887243747 ], [ -47.13511667566862, -25.578831512305282 ], [ -47.135113275062906, -25.578828134281473 ], [ -47.135109671689086, -25.578824819772404 ], [ -47.135106071276844, -25.578821502561226 ], [ -47.135102203053208, -25.578818184776974 ], [ -47.135098337409033, -25.578814864639295 ], [ -47.135094734599981, -25.578811549615644 ], [ -47.135091133625785, -25.578808232917918 ], [ -47.135087232471484, -25.578804945665855 ], [ -47.135083332684552, -25.578801657166267 ], [ -47.135079762357144, -25.578798436425881 ], [ -47.135076192716554, -25.578795215058939 ], [ -47.135072526931147, -25.578791709658265 ], [ -47.135068861312611, -25.578788204105457 ], [ -47.135065258806932, -25.578784951008583 ], [ -47.135061655902973, -25.578781698275183 ], [ -47.135057824271946, -25.578778253317182 ], [ -47.135053991568178, -25.578774809338022 ], [ -47.135050127137369, -25.578771363691356 ], [ -47.135046260974562, -25.578767919625061 ], [ -47.135042886973359, -25.578764983361495 ], [ -47.13503951123149, -25.578762048686187 ], [ -47.13503565416778, -25.578758098701257 ], [ -47.135031793696861, -25.578754151825187 ], [ -47.135028258818949, -25.578750898257638 ], [ -47.135024720814876, -25.578747647542485 ], [ -47.135020857645024, -25.578744200746804 ], [ -47.135016990227186, -25.578740757827106 ], [ -47.135013456751132, -25.578737440779079 ], [ -47.135009918979996, -25.578734127649952 ], [ -47.135006319559992, -25.578730809538413 ], [ -47.135002715213574, -25.578727495921822 ], [ -47.134999052473752, -25.578723987746134 ], [ -47.134995383824133, -25.578720484962645 ], [ -47.134991917375878, -25.578717167990622 ], [ -47.134988445101627, -25.578713856334332 ], [ -47.134984780321112, -25.578710536627685 ], [ -47.134981108818806, -25.578707223054099 ], [ -47.13497744343821, -25.578703966097411 ], [ -47.134973770905262, -25.578700715666642 ], [ -47.134970239067123, -25.578697397126277 ], [ -47.134966699666258, -25.578694085486262 ], [ -47.134962906067031, -25.578690574246338 ], [ -47.134959103242956, -25.578687071423293 ], [ -47.134955440509742, -25.578683687648002 ], [ -47.134951768597887, -25.578680312247421 ], [ -47.134948503193314, -25.578676933336503 ], [ -47.13494522907714, -25.578673562374171 ], [ -47.134941035784649, -25.578670297237203 ], [ -47.134936831006783, -25.578667042579571 ], [ -47.134932633448337, -25.578664092345537 ], [ -47.134928424777129, -25.578661152250895 ], [ -47.134924430604975, -25.578657889130497 ], [ -47.134920424271222, -25.578654637106457 ], [ -47.134916425766399, -25.578651688949837 ], [ -47.134912415605825, -25.578648751428016 ], [ -47.134908550601786, -25.578645741725698 ], [ -47.134904673614841, -25.578642742956706 ], [ -47.134900873153704, -25.57863986000098 ], [ -47.134897060881194, -25.578636987822009 ], [ -47.13489293376518, -25.578633847942715 ], [ -47.134888792075834, -25.578630721360259 ], [ -47.134884798480059, -25.5786275199176 ], [ -47.134880789945001, -25.578624332105687 ], [ -47.134876662501128, -25.578621254728219 ], [ -47.134872519510409, -25.578618191535803 ], [ -47.134868522685608, -25.578615241848059 ], [ -47.134864510853447, -25.578612305853138 ] ] } },
{ "type": "Feature", "properties": { "id_linha": 3, "comprimento_m": 40.102, "classificacao": "reta", "n_pontos": 39, "desvio_relativo": 0.01982 }, "geometry": { "type": "LineString", "coordinates": [ [ -47.135151186494411, -25.578848220116207 ], [ -47.135147915045415, -25.57884478450886 ], [ -47.135144648570346, -25.578841344363344 ], [ -47.135140718955675, -25.578837523742095 ], [ -47.135136795230331, -25.578833697747505 ], [ -47.135132996281186, -25.578830066976451 ], [ -47.135129202038115, -25.578826431911629 ], [ -47.135125465811178, -25.578823116155494 ], [ -47.135121733208955, -25.578819797092251 ], [ -47.135117863912221, -25.578816542489335 ], [ -47.135113997707784, -25.578813285065095 ], [ -47.135110395426658, -25.578809907357524 ], [ -47.135106795554911, -25.578806527451693 ], [ -47.13510309254476, -25.578803274207395 ], [ -47.135099391358509, -25.578800019299038 ], [ -47.13509569265571, -25.578796451114027 ], [ -47.135091995323066, -25.578792881678982 ], [ -47.135088393096993, -25.57878956612447 ], [ -47.135084791542532, -25.578786249957254 ], [ -47.135081127415013, -25.578782618639892 ], [ -47.13507746340234, -25.578778987217845 ], [ -47.135073661338858, -25.578775794706782 ], [ -47.135069858798644, -25.578772602630742 ], [ -47.135066127405821, -25.578769095860288 ], [ -47.135062394876833, -25.578765590126562 ], [ -47.135058696090503, -25.578762146424062 ], [ -47.135054995584895, -25.57875870429033 ], [ -47.135051295427175, -25.578755386243802 ], [ -47.13504759303045, -25.578752070240238 ], [ -47.135043859201623, -25.578748814502205 ], [ -47.135040122585117, -25.578745561307716 ], [ -47.135036793200207, -25.578741806324736 ], [ -47.135033460320969, -25.578738054530113 ], [ -47.135029592913696, -25.578734922611865 ], [ -47.135025721573214, -25.578731794282383 ], [ -47.135021988604564, -25.578728537760568 ], [ -47.135018251132102, -25.578725285348131 ], [ -47.135014386890504, -25.578721963935767 ], [ -47.135010517283298, -25.578718647419098 ], [ -47.135006854582471, -25.578715139208175 ], [ -47.135003185893829, -25.578711636460636 ], [ -47.134999453795807, -25.578708379145514 ], [ -47.13499571545703, -25.578705127524579 ], [ -47.134991984525186, -25.578701806943677 ], [ -47.134988246653727, -25.578698492694606 ], [ -47.134984849629184, -25.578694987006166 ], [ -47.134981445350718, -25.578691487936322 ], [ -47.134977782077044, -25.578688104653814 ], [ -47.134974110702835, -25.57868472876234 ], [ -47.134970318967639, -25.578681091417874 ], [ -47.134966517543859, -25.578677462913411 ], [ -47.134962986321234, -25.578674143812556 ], [ -47.134959446307747, -25.578670832732612 ], [ -47.134955583597311, -25.578667572128214 ], [ -47.134951710838514, -25.578664320692049 ], [ -47.134948045098724, -25.578661188469432 ], [ -47.134944369667807, -25.578658065089112 ], [ -47.134940304473126, -25.578655116549125 ], [ -47.134936228479312, -25.578652177862374 ], [ -47.134932099266408, -25.578649102097657 ], [ -47.134927958036158, -25.578646037297663 ], [ -47.134923963288188, -25.578642836905495 ], [ -47.13491995589969, -25.578639648046675 ], [ -47.134915961460699, -25.578636447372922 ], [ -47.134911953764728, -25.578633258794973 ], [ -47.134908286581521, -25.578630314497076 ], [ -47.134904607704328, -25.578627380868859 ], [ -47.13490040978273, -25.578624555372297 ], [ -47.134896198217753, -25.578621742324035 ], [ -47.134892468230731, -25.578618607491642 ], [ -47.134888724536296, -25.578615485166036 ], [ -47.134884531010279, -25.578612406851324 ], [ -47.134880321581527, -25.578609343046391 ], [ -47.134876390433618, -25.578606425767667 ], [ -47.134872444628954, -25.57860352186184 ], [ -47.13486831637212, -25.578600538530257 ], [ -47.134864171749051, -25.578597570131343 ] ] } },
{ "type": "Feature", "properties": { "id_linha": 4, "comprimento_m": 38.92, "classificacao": "reta", "n_pontos": 38, "desvio_relativo": 0.01998 }, "geometry": { "type": "LineString", "coordinates": [ [ -47.135155070050104, -25.578834918824136 ], [ -47.135151600655611, -25.578831417927216 ], [ -47.135148136196108, -25.578827912527657 ], [ -47.135144733386021, -25.578824412110599 ], [ -47.135141334864294, -25.578820907780912 ], [ -47.135137733449405, -25.57881740487796 ], [ -47.13513413597147, -25.578813898382986 ], [ -47.135130396769647, -25.578810834150691 ], [ -47.135126660615597, -25.578807767137626 ], [ -47.135123058997515, -25.578804326623011 ], [ -47.13511946009374, -25.57880088363196 ], [ -47.135115757756026, -25.578797567572138 ], [ -47.135112057528474, -25.578794249587069 ], [ -47.135108422555817, -25.57879087109259 ], [ -47.135104789117207, -25.578787491198526 ], [ -47.135101057456836, -25.578783922469007 ], [ -47.135097326821999, -25.578780352803886 ], [ -47.135093788577336, -25.578777226711008 ], [ -47.135090250667034, -25.578774100313119 ], [ -47.135086651325842, -25.578770595520727 ], [ -47.135083051784193, -25.57876709091131 ], [ -47.135079053585436, -25.578763707054769 ], [ -47.135075054514893, -25.578760323993752 ], [ -47.135071519543551, -25.578757008308724 ], [ -47.13506798325983, -25.578753693821213 ], [ -47.135064119024307, -25.578750247997366 ], [ -47.135060252666804, -25.578746804109702 ], [ -47.135056192585481, -25.578743166676148 ], [ -47.135052129409338, -25.578739532066422 ], [ -47.135048226375353, -25.578736557543788 ], [ -47.135044320319281, -25.578733585778604 ], [ -47.135040758905838, -25.578729859291169 ], [ -47.135037193417546, -25.57872613652173 ], [ -47.135033660719571, -25.578722756562151 ], [ -47.135030123801585, -25.578719380452995 ], [ -47.135026526029449, -25.578715936434204 ], [ -47.135022923298436, -25.578712496939996 ], [ -47.135019125457035, -25.578709176175803 ], [ -47.13501532197099, -25.57870586056189 ], [ -47.135011723914019, -25.578702479005852 ], [ -47.135008119838659, -25.578699102941101 ], [ -47.135004056046, -25.578695904311473 ], [ -47.134999985167852, -25.578692712146754 ], [ -47.134996719546137, -25.578689271230811 ], [ -47.13499344727304, -25.578685836383691 ], [ -47.134989587111264, -25.578682324644593 ], [ -47.134985718327059, -25.578678820772708 ], [ -47.134982190295659, -25.578675249951537 ], [ -47.134978653617168, -25.578671687020091 ], [ -47.134975058809665, -25.578668178096862 ], [ -47.134971454756148, -25.578664677609819 ], [ -47.134967921897477, -25.578661484406457 ], [ -47.134964380256456, -25.578658299216237 ], [ -47.134960450646254, -25.578655100622825 ], [ -47.134956510635405, -25.578651911519085 ], [ -47.134952645653264, -25.578648839594617 ], [ -47.134948770271983, -25.578645777158439 ], [ -47.134944640945321, -25.578642701497902 ], [ -47.134940499828268, -25.578639636595049 ], [ -47.134936702487934, -25.578636501983819 ], [ -47.134932893620231, -25.57863337789027 ], [ -47.134928893462394, -25.578630555647155 ], [ -47.134924881691532, -25.578627743999874 ], [ -47.134920753263273, -25.578624667520547 ], [ -47.134916611252187, -25.578621603434303 ], [ -47.13491248407982, -25.578618463607334 ], [ -47.134908342446529, -25.578615336974629 ], [ -47.134904548128461, -25.578612075203019 ], [ -47.134900739508566, -25.578608826480522 ], [ -47.134896508519006, -25.578606031641627 ], [ -47.134892262948128, -25.578603250106827 ], [ -47.134888695871986, -25.578600306319302 ], [ -47.134885115672979, -25.5785973745052 ], [ -47.13488098729735, -25.578594391282408 ], [ -47.134876842792515, -25.578591422776022 ] ] } },
{ "type": "Feature", "properties": { "id_linha": 5, "comprimento_m": 40.143, "classificacao": "curva", "n_pontos": 39, "desvio_relativo": 0.02012 }, "geometry": { "type": "LineString", "coordinates": [ [ -47.135169048377058, -25.578830171752063 ], [ -47.135165447728646, -25.578826543744558 ], [ -47.135161852743899, -25.57882291056961 ], [ -47.135158051958825, -25.578819405878491 ], [ -47.135154256286242, -25.578815896522784 ], [ -47.135150717900366, -25.578812646152389 ], [ -47.135147183385989, -25.578809392249685 ], [ -47.135143415202265, -25.57880598173276 ], [ -47.135139650743938, -25.578802567816865 ], [ -47.135135813425556, -25.578799407956659 ], [ -47.135131979055252, -25.578796245406679 ], [ -47.135128278557886, -25.578792772162295 ], [ -47.135124580568721, -25.578789296629509 ], [ -47.135121077606925, -25.578785951251753 ], [ -47.1351175763821, -25.578782604289241 ], [ -47.135113908416827, -25.578779225282201 ], [ -47.135110241710983, -25.57877584512612 ], [ -47.135106376054303, -25.578772400597629 ], [ -47.135102511111114, -25.578768955418244 ], [ -47.135098844559394, -25.578765512919993 ], [ -47.135095178074813, -25.578762070360575 ], [ -47.135091511824371, -25.578758627587831 ], [ -47.135087845039969, -25.578755185302366 ], [ -47.135084310761165, -25.578751806783419 ], [ -47.135080775415958, -25.578748429237553 ], [ -47.135077107261417, -25.578745174809406 ], [ -47.13507343748816, -25.578741921858292 ], [ -47.135069838363343, -25.578738479072303 ], [ -47.135066236978219, -25.578735038348732 ], [ -47.13506230952143, -25.578731402371272 ], [ -47.135058378762523, -25.578727769406804 ], [ -47.135054449113049, -25.578724322036908 ], [ -47.135050515652551, -25.578720878144285 ], [ -47.135046847801725, -25.578717685642658 ], [ -47.135043176098534, -25.578714496656026 ], [ -47.135039510236055, -25.578711177936238 ], [ -47.135035839809866, -25.57870786338049 ], [ -47.135032239579957, -25.57870460821113 ], [ -47.13502863441115, -25.578701357548116 ], [ -47.135024836701156, -25.578698036664566 ], [ -47.135021033084186, -25.578694721170638 ], [ -47.135017700837736, -25.578691279811704 ], [ -47.135014362666404, -25.578687843858742 ], [ -47.135010303427428, -25.578684330064245 ], [ -47.135006236156379, -25.578680823598333 ], [ -47.135002637040081, -25.578677567414321 ], [ -47.13499903076324, -25.578674317763696 ], [ -47.134995434591367, -25.578670872287148 ], [ -47.134991830267651, -25.578667434248462 ], [ -47.134988100233883, -25.578664112849999 ], [ -47.134984361468405, -25.578660799418451 ], [ -47.13498076497968, -25.578657416433849 ], [ -47.134977159343578, -25.578654041795435 ], [ -47.134973765281671, -25.578650409001739 ], [ -47.134970361309854, -25.578646785249969 ], [ -47.134966167190974, -25.578643583070601 ], [ -47.134961961607686, -25.578640391351467 ], [ -47.134958098600762, -25.578637193221226 ], [ -47.134954224509144, -25.57863400520478 ], [ -47.134950294716951, -25.578630868980753 ], [ -47.134946353259508, -25.578627743400258 ], [ -47.13494209210117, -25.57862466556179 ], [ -47.134937817777242, -25.578621599735719 ], [ -47.13493362214318, -25.578618585546373 ], [ -47.134929413184743, -25.578615583514278 ], [ -47.134925746968911, -25.578612576132528 ], [ -47.134922068756566, -25.578609579696494 ], [ -47.134918138242959, -25.578606568536063 ], [ -47.13491419424831, -25.578603569675874 ], [ -47.134910000462312, -25.57860049159914 ], [ -47.134905791292319, -25.578597427558897 ], [ -47.134901859437242, -25.578594542027105 ], [ -47.134897913522465, -25.578591669323536 ], [ -47.134893987698725, -25.578588405076768 ], [ -47.134890045547337, -25.578585155727485 ], [ -47.134885783668629, -25.578582265154516 ], [ -47.134881505178789, -25.578579389737655 ] ] } },
{ "type": "Feature", "properties": { "id_linha": 6, "comprimento_m": 39.911, "classificacao": "reta", "n_pontos": 39, "desvio_relativo": 0.01756 }, "geometry": { "type": "LineString", "coordinates": [ [ -47.13517581475039, -25.578819422429785 ], [ -47.135172146363168, -25.578815919401102 ], [ -47.135168483333096, -25.578812411484591 ], [ -47.135164876902984, -25.578809286371293 ], [ -47.135161274647331, -25.578806157449264 ], [ -47.13515777571795, -25.578802404076605 ], [ -47.135154281062022, -25.578798646804927 ], [ -47.135150541010098, -25.578795645551228 ], [ -47.135146804073827, -25.578792641454843 ], [ -47.135143098209959, -25.578789577421556 ], [ -47.135139394979163, -25.578786510985903 ], [ -47.135135661010779, -25.578783068766487 ], [ -47.135131929416445, -25.578779624381031 ], [ -47.135128263634947, -25.578776056774853 ], [ -47.135124599639639, -25.57877248753903 ], [ -47.135121128139943, -25.578769299577129 ], [ -47.135117657635234, -25.57876611070747 ], [ -47.135113926200397, -25.578762541773116 ], [ -47.135110195340623, -25.578758972314141 ], [ -47.135106661371658, -25.578755531309934 ], [ -47.135103127345758, -25.578752090357749 ], [ -47.135099461155733, -25.578748647530301 ], [ -47.135095794310992, -25.578745205300315 ], [ -47.135092260917808, -25.578741763771518 ], [ -47.135088726318948, -25.578738323342876 ], [ -47.135084724509113, -25.578735253793592 ], [ -47.135080720892432, -25.578732185892957 ], [ -47.135077252632293, -25.578728870572927 ], [ -47.135073782159949, -25.578725557271426 ], [ -47.135069790234162, -25.578721794480472 ], [ -47.135065794687627, -25.578718034993209 ], [ -47.135062258214631, -25.578714907286855 ], [ -47.135058718541536, -25.578711782500356 ], [ -47.135054985356852, -25.57870852617652 ], [ -47.135051248098968, -25.578705273569152 ], [ -47.135047550890711, -25.578701828429772 ], [ -47.135043848814, -25.578698387732484 ], [ -47.135040017756992, -25.578695066659307 ], [ -47.135036181225459, -25.578691750581196 ], [ -47.135032583062987, -25.578688369121927 ], [ -47.135028979092198, -25.578684992962291 ], [ -47.135025049340918, -25.578681670091903 ], [ -47.135021112725802, -25.578678353484193 ], [ -47.135017516910132, -25.578674845480151 ], [ -47.135013913859481, -25.578671344077403 ], [ -47.135010117112991, -25.578668022316268 ], [ -47.135006312537037, -25.578664707698877 ], [ -47.135002584959956, -25.578661197452583 ], [ -47.134998848632677, -25.578657695190099 ], [ -47.134995253726501, -25.578654186357369 ], [ -47.134991649770704, -25.578650685781646 ], [ -47.13498818570465, -25.578647304437116 ], [ -47.134984712686908, -25.578643931260238 ], [ -47.134981045844334, -25.578640862246822 ], [ -47.134977369882762, -25.578637801553658 ], [ -47.134973445057589, -25.578634287584904 ], [ -47.134969508422991, -25.578630784391173 ], [ -47.134965510398956, -25.578627773595247 ], [ -47.134961501387522, -25.578624772824313 ], [ -47.134957703956921, -25.578621638296156 ], [ -47.134953895178867, -25.578618514121548 ], [ -47.134949895862164, -25.578615628909819 ], [ -47.134945884881944, -25.578612754339979 ], [ -47.134941691162098, -25.578609614000449 ], [ -47.134937483553919, -25.578606486332752 ], [ -47.13493335392976, -25.578603504248878 ], [ -47.134929210667394, -25.57860053460864 ], [ -47.134925276905285, -25.578597744119882 ], [ -47.134921330446758, -25.578594965215448 ], [ -47.13491674776256, -25.578591376967118 ], [ -47.134912145426668, -25.578587806649164 ], [ -47.13490874363054, -25.578584865138492 ], [ -47.134905329451819, -25.578581934925808 ], [ -47.134901659555283, -25.578579241914237 ], [ -47.134897976868132, -25.578576560572923 ], [ -47.134893985278168, -25.57857329510097 ], [ -47.134889976374282, -25.578570045426403 ] ] } },
{ "type": "Feature", "properties": { "id_linha": 7, "comprimento_m": 39.936, "classificacao": "reta", "n_pontos": 39, "desvio_relativo": 0.0173 }, "geometry": { "type": "LineString", "coordinates": [ [ -47.13518545904865, -25.578811602757703 ], [ -47.135181786793048, -25.578808414270224 ], [ -47.135178119472243, -25.578805221280302 ], [ -47.135174151451089, -25.578801840503068 ], [ -47.135170188449081, -25.578798455146423 ], [ -47.135166620485691, -25.578794921237485 ], [ -47.135163056631399, -25.578791383579471 ], [ -47.135159320887432, -25.578788036283118 ], [ -47.135155588617963, -25.578784685816689 ], [ -47.135151782534855, -25.578781683579482 ], [ -47.135147979110293, -25.57877867891667 ], [ -47.135144314604361, -25.578774985742058 ], [ -47.135140652595396, -25.578771290289296 ], [ -47.135137316590367, -25.578767852355146 ], [ -47.135133982158187, -25.578764412985997 ], [ -47.135130312648997, -25.578761159792872 ], [ -47.135126644223355, -25.57875790561118 ], [ -47.135123042879741, -25.578754527050712 ], [ -47.135119442074291, -25.578751147999295 ], [ -47.135115707680832, -25.578747830573995 ], [ -47.135111973253458, -25.578744513179704 ], [ -47.135108239976006, -25.57874113253429 ], [ -47.135104506065915, -25.578737752466189 ], [ -47.135100968522288, -25.578734625735621 ], [ -47.135097429914161, -25.578731499976364 ], [ -47.135093833875153, -25.57872780556632 ], [ -47.135090235930178, -25.578724112895401 ], [ -47.135086236918227, -25.578720854187463 ], [ -47.135082235400745, -25.578717597765671 ], [ -47.135078766564192, -25.578714345174411 ], [ -47.135075295037481, -25.578711095037743 ], [ -47.13507136541741, -25.578707647641828 ], [ -47.135067431927368, -25.578704203776962 ], [ -47.13506363679614, -25.578700631731508 ], [ -47.135059837123819, -25.57869706382948 ], [ -47.135056442201204, -25.57869330741379 ], [ -47.135053042340907, -25.57868955550337 ], [ -47.135049172991607, -25.578686611966013 ], [ -47.135045298700184, -25.578683672937952 ], [ -47.135041633455344, -25.578680353656079 ], [ -47.135037962414216, -25.57867703966286 ], [ -47.135034366286312, -25.578673531943593 ], [ -47.135030763546133, -25.578670030257502 ], [ -47.135027030036461, -25.57866689863663 ], [ -47.135023289846508, -25.578663773110947 ], [ -47.135019629011857, -25.578660200997675 ], [ -47.135015960092829, -25.578656636260714 ], [ -47.135012429261089, -25.57865325460169 ], [ -47.135008890485459, -25.578649880190817 ], [ -47.135005427008586, -25.578646436106464 ], [ -47.135001955031932, -25.57864299977745 ], [ -47.134998160061571, -25.578639614195101 ], [ -47.134994355345604, -25.57863623750476 ], [ -47.134990559773506, -25.578632914673932 ], [ -47.134986754028716, -25.578629601124799 ], [ -47.134983023091181, -25.578626404957014 ], [ -47.1349792819695, -25.578623218081376 ], [ -47.134975285757577, -25.578620081228287 ], [ -47.13497127819808, -25.578616954728812 ], [ -47.134967280434907, -25.578613943695593 ], [ -47.134963271163912, -25.578610943162225 ], [ -47.134959638439135, -25.578607873636848 ], [ -47.134955994625209, -25.578604814229347 ], [ -47.134951667660502, -25.578601735202923 ], [ -47.134947326624236, -25.578598669015516 ], [ -47.134943296649801, -25.578595656757244 ], [ -47.134939253334167, -25.578592656671582 ], [ -47.134935255768376, -25.57858970766155 ], [ -47.134931244673524, -25.578586770995528 ], [ -47.134926984794873, -25.57858369199171 ], [ -47.134922709197397, -25.578580627329888 ], [ -47.13491891534953, -25.578577365130936 ], [ -47.134915106261396, -25.578574116837359 ], [ -47.134911309821135, -25.578571043610246 ], [ -47.134907498430223, -25.578567984024232 ], [ -47.134903501988859, -25.578565033989445 ], [ -47.134899489775243, -25.57856209834539 ] ] } },
{ "type": "Feature", "properties": { "id_linha": 8, "comprimento_m": 40.089, "classificacao": "reta", "n_pontos": 39, "desvio_relativo": 0.01636 }, "geometry": { "type": "LineString", "coordinates": [ [ -47.135194226282934, -25.578799869538379 ], [ -47.135190359807183, -25.578796301351051 ], [ -47.135186498934928, -25.578792728051116 ], [ -47.135183094573691, -25.578789353455015 ], [ -47.135179694338447, -25.578785975094412 ], [ -47.135175826961039, -25.578782532135094 ], [ -47.135171963729945, -25.578779085392718 ], [ -47.135168224533977, -25.578776021156738 ], [ -47.135164488373746, -25.578772954151006 ], [ -47.135160686326287, -25.57876963722093 ], [ -47.135156887025332, -25.578766317784996 ], [ -47.135153285709102, -25.578762876996677 ], [ -47.135149686504036, -25.578759434282198 ], [ -47.135145885056005, -25.578756116805948 ], [ -47.135142085158556, -25.578752797914991 ], [ -47.135138418163777, -25.57874935582149 ], [ -47.135134752119463, -25.578745912860846 ], [ -47.135131086240065, -25.578742407547804 ], [ -47.13512742071368, -25.578738901912761 ], [ -47.135123754324212, -25.578735459267737 ], [ -47.1351200876775, -25.578732016857497 ], [ -47.135116288261763, -25.578728635326168 ], [ -47.135112487969685, -25.578725254594517 ], [ -47.135108689694327, -25.57872180982087 ], [ -47.135104889895246, -25.578718366437556 ], [ -47.135101221074102, -25.578715174821195 ], [ -47.135097550335928, -25.578711984954012 ], [ -47.135093883465863, -25.5787086671534 ], [ -47.135090214041782, -25.578705351683151 ], [ -47.135086683303662, -25.578701783329311 ], [ -47.135083149317765, -25.578698217938857 ], [ -47.135079747075608, -25.578694965818769 ], [ -47.13507634147669, -25.578691716761487 ], [ -47.135072547308837, -25.578688081635391 ], [ -47.135068748305287, -25.578684450921504 ], [ -47.135064950158267, -25.578681130437396 ], [ -47.135061146975744, -25.57867781454776 ], [ -47.135057184046467, -25.578674460232683 ], [ -47.135053215162408, -25.578671111350847 ], [ -47.135049780876294, -25.578667857853546 ], [ -47.135046341066527, -25.578664609396117 ], [ -47.135042546896393, -25.578661067576956 ], [ -47.135038745453258, -25.578657532393802 ], [ -47.135034816128247, -25.578654209135863 ], [ -47.135030879088646, -25.578650892916844 ], [ -47.135027149529677, -25.578647508883638 ], [ -47.135023411918873, -25.578644132197049 ], [ -47.135019880312818, -25.57864081344718 ], [ -47.135016340679833, -25.57863750202122 ], [ -47.135012811142509, -25.57863405697989 ], [ -47.135009272706185, -25.578630620058139 ], [ -47.135005279360215, -25.578627231781212 ], [ -47.135001275459103, -25.57862385313495 ], [ -47.134997809947812, -25.578620597514444 ], [ -47.134994335112566, -25.578617350401242 ], [ -47.134990539041873, -25.578614090228381 ], [ -47.134986732165473, -25.578610839914781 ], [ -47.134982738389724, -25.578607545334265 ], [ -47.134978732474778, -25.578604261829685 ], [ -47.13497490067995, -25.57860122134413 ], [ -47.134971057558133, -25.578598191193443 ], [ -47.134967223710333, -25.578595308086602 ], [ -47.134963378562595, -25.578592435289931 ], [ -47.13495925202281, -25.578589232685388 ], [ -47.134955111387477, -25.57858604294179 ], [ -47.134950980443101, -25.578583155366857 ], [ -47.134946836053288, -25.578580280059661 ], [ -47.134942576949207, -25.578577138147498 ], [ -47.134938302208489, -25.578574010502333 ], [ -47.134934241794468, -25.578570870998711 ], [ -47.134930165926086, -25.578567745595784 ], [ -47.13492637029151, -25.578564609431812 ], [ -47.134922559726242, -25.578561486890742 ], [ -47.134918763405949, -25.578558413554813 ], [ -47.134914951895617, -25.578555354078393 ], [ -47.134910956545589, -25.57855234084651 ], [ -47.134906944873435, -25.578549342507046 ] ] } },
{ "type": "Feature", "properties": { "id_linha": 9, "comprimento_m": 40.353, "classificacao": "curva", "n_pontos": 40, "desvio_relativo": 0.02009 }, "geometry": { "type": "LineString", "coordinates": [ [ -47.135203019797636, -25.57879122148077 ], [ -47.135197717159876, -25.578786185912449 ], [ -47.13519490472445, -25.578783195536431 ], [ -47.135192095459026, -25.578780202268113 ], [ -47.135188490020731, -25.578777014049027 ], [ -47.135184888405654, -25.578773822341685 ], [ -47.135180954125964, -25.578770441395847 ], [ -47.135177023645348, -25.578767056983796 ], [ -47.13517328618034, -25.578763866764508 ], [ -47.135169551553346, -25.578760673955887 ], [ -47.135165749675721, -25.578757356871439 ], [ -47.135161950205621, -25.578754037590436 ], [ -47.135158346653363, -25.578750785449618 ], [ -47.135154744789553, -25.578747531768318 ], [ -47.135151010579143, -25.578744151973769 ], [ -47.135147277597149, -25.578740771058481 ], [ -47.13514367459404, -25.578737518417302 ], [ -47.135140072183837, -25.578734265235223 ], [ -47.135136538976646, -25.57873076133459 ], [ -47.135133005819803, -25.578727257388117 ], [ -47.135129534229044, -25.578724131713528 ], [ -47.135126062186771, -25.578721006450976 ], [ -47.135122328318097, -25.578717688548291 ], [ -47.135118593368155, -25.578714371632245 ], [ -47.135115191845557, -25.578710994450198 ], [ -47.135111788785736, -25.578707618670812 ], [ -47.135108188807656, -25.578704238866841 ], [ -47.135104586642925, -25.578700861058092 ], [ -47.135100854483269, -25.578697479394961 ], [ -47.135097119460418, -25.578694100344286 ], [ -47.135093448743419, -25.578691097065533 ], [ -47.135089775008531, -25.578688096540382 ], [ -47.135086313448419, -25.578684339693698 ], [ -47.135082847702364, -25.578680586666366 ], [ -47.135079115572928, -25.578677267178961 ], [ -47.135075378892232, -25.57867395184422 ], [ -47.135071448421414, -25.578670629630807 ], [ -47.135067512522042, -25.578667312370509 ], [ -47.135063785345181, -25.578663677354115 ], [ -47.135060051874518, -25.578660048080323 ], [ -47.135056320645482, -25.578656727772483 ], [ -47.135052583068784, -25.578653413256351 ], [ -47.135048853014467, -25.578650029674858 ], [ -47.135045115896439, -25.578646652538417 ], [ -47.135041582061866, -25.578643460225933 ], [ -47.135038041390928, -25.578640274151077 ], [ -47.135034049880517, -25.578636697592302 ], [ -47.135030049035691, -25.578633129550408 ], [ -47.135026512172466, -25.578630188810614 ], [ -47.135022968004968, -25.578627254735348 ], [ -47.135019638888394, -25.578623686119244 ], [ -47.135016300856755, -25.578620125637393 ], [ -47.135012507928899, -25.578616613788203 ], [ -47.13500870443518, -25.578613111579461 ], [ -47.135004941253321, -25.578609852014523 ], [ -47.135001167747191, -25.578606601869563 ], [ -47.134997271617706, -25.578603403346506 ], [ -47.134993364387888, -25.578600214951521 ], [ -47.134989571487992, -25.578596765280086 ], [ -47.134985766338772, -25.578593326785089 ], [ -47.134981964477063, -25.578590507312047 ], [ -47.134978151970436, -25.578587697551548 ], [ -47.134974022412315, -25.578584684307611 ], [ -47.134969879898058, -25.578581682884973 ], [ -47.134965815837283, -25.57857873331465 ], [ -47.134961738715354, -25.578575795661468 ], [ -47.134957677778573, -25.578572656634776 ], [ -47.134953602430393, -25.578569530757182 ], [ -47.134950000932996, -25.57856664996374 ], [ -47.134946387260342, -25.578563780279119 ], [ -47.134942129522216, -25.578560574919489 ], [ -47.134937855049586, -25.578557384828571 ], [ -47.134933593784311, -25.578554431495789 ], [ -47.134929316311819, -25.578551492950591 ], [ -47.134925115675671, -25.578548918743525 ], [ -47.134920900302767, -25.578546357982379 ], [ -47.134916905028966, -25.578543344681453 ], [ -47.134912893280969, -25.578540346411689 ] ] } },
{ "type": "Feature", "properties": { "id_linha": 10, "comprimento_m": 39.664, "classificacao": "reta", "n_pontos": 39, "desvio_relativo": 0.01728 }, "geometry": { "type": "LineString", "coordinates": [ [ -47.135208940277934, -25.578779266091775 ], [ -47.135205467924003, -25.578776016706186 ], [ -47.135201999896104, -25.578772763373582 ], [ -47.135198197871716, -25.578769384220038 ], [ -47.135194400175465, -25.578766001117543 ], [ -47.135190530601058, -25.57876274677059 ], [ -47.135186664672155, -25.578759489097511 ], [ -47.135183127618703, -25.578756175311511 ], [ -47.135179593405446, -25.57875285893418 ], [ -47.135175791497879, -25.578749541877418 ], [ -47.13517199205743, -25.578746222569702 ], [ -47.135168192050969, -25.578742779374146 ], [ -47.135164393974414, -25.578739334417826 ], [ -47.135160459328034, -25.578736078212934 ], [ -47.135156525956283, -25.578732820845133 ], [ -47.135153056283954, -25.578729506813005 ], [ -47.135149587215793, -25.578726192229727 ], [ -47.135145923926054, -25.578722497947915 ], [ -47.135142260705635, -25.57871880360295 ], [ -47.13513859363924, -25.57871542377864 ], [ -47.135134926037928, -25.578712044442476 ], [ -47.135131260920147, -25.578708538436128 ], [ -47.135127594635314, -25.578705033494707 ], [ -47.135123925661965, -25.578701842017782 ], [ -47.135120255074966, -25.578698652013227 ], [ -47.135116323934383, -25.578695268207312 ], [ -47.135112390329333, -25.578691886650073 ], [ -47.13510859451366, -25.578688315229396 ], [ -47.135104795521912, -25.578684746706674 ], [ -47.135101326080637, -25.578681556870716 ], [ -47.135097853527384, -25.578678369874211 ], [ -47.135094192503651, -25.578674673527665 ], [ -47.135090527027721, -25.578670981243452 ], [ -47.135086862031692, -25.578667599532729 ], [ -47.135083192370104, -25.57866422207897 ], [ -47.135079198355328, -25.578660710005927 ], [ -47.135075198375326, -25.578657203375684 ], [ -47.135071666396172, -25.578653822763105 ], [ -47.135068128761588, -25.578650447310643 ], [ -47.13506472597016, -25.578647320098298 ], [ -47.135061317662377, -25.578644197919179 ], [ -47.13505769001798, -25.578640595038106 ], [ -47.135054054982461, -25.578636998900826 ], [ -47.135050324374561, -25.578633678027384 ], [ -47.135046586179584, -25.578630364076528 ], [ -47.135042624671307, -25.578627008467404 ], [ -47.135038654372714, -25.578623660878698 ], [ -47.135034857283941, -25.578620401634328 ], [ -47.135031051420384, -25.57861715039617 ], [ -47.135027718758501, -25.578613833823777 ], [ -47.135024377744124, -25.578610524872328 ], [ -47.135020552242658, -25.578606981027164 ], [ -47.135016715878436, -25.578603447093329 ], [ -47.13501291555913, -25.57860047070724 ], [ -47.13500910558632, -25.578597503129107 ], [ -47.13500534273328, -25.578594243264902 ], [ -47.13500156889981, -25.578590993419386 ], [ -47.134997705256581, -25.578587858074304 ], [ -47.134993830170174, -25.578584733170096 ], [ -47.134989967741674, -25.578581534514882 ], [ -47.134986093074012, -25.578578347026809 ], [ -47.134982161057273, -25.57857539944176 ], [ -47.134978216930691, -25.578572462905836 ], [ -47.1349740895959, -25.578569323229917 ], [ -47.134969948124137, -25.578566196452702 ], [ -47.134965809790152, -25.578563813238141 ], [ -47.13496165973396, -25.578561440718996 ], [ -47.134957598168988, -25.57855836446835 ], [ -47.134953521818431, -25.578555301708199 ], [ -47.134948413916746, -25.578550583185045 ], [ -47.134944348065552, -25.578547821856176 ], [ -47.134940267843042, -25.578545073639795 ], [ -47.134936408308739, -25.578541810143882 ], [ -47.134932532388504, -25.578538561598631 ], [ -47.134928542902188, -25.578535169805143 ], [ -47.134924535159321, -25.578531794669082 ] ] } },
{ "type": "Feature", "properties": { "id_linha": 11, "comprimento_m": 40.527, "classificacao": "reta", "n_pontos": 39, "desvio_relativo": 0.0175 }, "geometry": { "type": "LineString", "coordinates": [ [ -47.135219893457375, -25.57877272084923 ], [ -47.135216687014044, -25.5787694115687 ], [ -47.135213484789553, -25.578766098438951 ], [ -47.135209484555212, -25.578762654237163 ], [ -47.135205489137931, -25.578759205640321 ], [ -47.135201819151391, -25.578755890680384 ], [ -47.135198152827911, -25.57875257237831 ], [ -47.135194219549284, -25.57874912831786 ], [ -47.13519028970007, -25.57874568112846 ], [ -47.135186490908161, -25.578742112420091 ], [ -47.135182694878566, -25.57873854119147 ], [ -47.135178890027611, -25.578735475630104 ], [ -47.135175087004647, -25.578732408400928 ], [ -47.135171420598382, -25.578728903568916 ], [ -47.135167755595646, -25.578725397456392 ], [ -47.135163956967084, -25.578721890802424 ], [ -47.135160159146913, -25.578718383410965 ], [ -47.135156422210358, -25.578715254914222 ], [ -47.135152685429603, -25.578712126275377 ], [ -47.135149019122458, -25.578708683556329 ], [ -47.135145352393209, -25.578705241222487 ], [ -47.135141553888218, -25.57870179665915 ], [ -47.135137754317128, -25.578698353068624 ], [ -47.135134153198457, -25.57869503650787 ], [ -47.135130550540595, -25.578691721351547 ], [ -47.1351266839049, -25.578688464327165 ], [ -47.135122815051432, -25.57868520932638 ], [ -47.135119217866368, -25.57868164036833 ], [ -47.135115617805056, -25.578678074034663 ], [ -47.13511195300417, -25.578674629943173 ], [ -47.135108284775932, -25.578671188978902 ], [ -47.135104491255056, -25.578667491061022 ], [ -47.13510069323474, -25.578663797248581 ], [ -47.13509709269308, -25.578660542365402 ], [ -47.13509348783343, -25.57865729142204 ], [ -47.135089426680842, -25.578653841577097 ], [ -47.135085359685881, -25.578650397062855 ], [ -47.135081893862555, -25.57864701732089 ], [ -47.135078422592109, -25.578643642549004 ], [ -47.135074563346528, -25.578640005571192 ], [ -47.135070696904734, -25.578636375159324 ], [ -47.13506703658858, -25.578632740371642 ], [ -47.13506336878023, -25.57862911242 ], [ -47.13505960240434, -25.578625980172699 ], [ -47.135055828821116, -25.578622854501518 ], [ -47.135052199548412, -25.578619408612614 ], [ -47.135048562063922, -25.578615970216287 ], [ -47.13504496617805, -25.578612524481105 ], [ -47.135041361568355, -25.578609086705683 ], [ -47.135037827647842, -25.578605956675531 ], [ -47.135034285434713, -25.578602834211679 ], [ -47.135030385548347, -25.578599856824152 ], [ -47.135026476360423, -25.578596887923492 ], [ -47.135022517901568, -25.578593405129535 ], [ -47.135018547823165, -25.578589932937405 ], [ -47.135014751868248, -25.578586672660204 ], [ -47.135010944876278, -25.57858342245337 ], [ -47.135006948905925, -25.578580285381964 ], [ -47.135002941105832, -25.578577159104171 ], [ -47.134999202649354, -25.578574529618493 ], [ -47.13499545436175, -25.57857190910282 ], [ -47.134991325740494, -25.578568832802905 ], [ -47.13498718392146, -25.578565768544763 ], [ -47.134982212415061, -25.578561607854699 ], [ -47.134977218464286, -25.578557467643126 ], [ -47.13497342879166, -25.578553890625066 ], [ -47.134969623685294, -25.578550327688941 ], [ -47.1349652364243, -25.578546931438538 ], [ -47.134960831329451, -25.578543551459898 ], [ -47.134956764438499, -25.578540853282274 ], [ -47.134952683623276, -25.578538167809267 ], [ -47.134948024867846, -25.578535271963958 ], [ -47.134943348132857, -25.578532392523314 ], [ -47.134939814565655, -25.578529448781008 ], [ -47.134936267119606, -25.578526517701857 ], [ -47.134932604448807, -25.578523382685741 ], [ -47.134928925963635, -25.578520262098788 ] ] } },
{ "type": "Feature", "properties": { "id_linha": 12, "comprimento_m": 40.283, "classificacao": "reta", "n_pontos": 36, "desvio_relativo": 0.01726 }, "geometry": { "type": "LineString", "coordinates": [ [ -47.135225573544517, -25.578763973414851 ], [ -47.135221707245272, -25.578760405068049 ], [ -47.135217846196539, -25.578756831930725 ], [ -47.135214374906795, -25.578753519372821 ], [ -47.135210907447487, -25.578750203320062 ], [ -47.135206972381312, -25.578746885295267 ], [ -47.135203041055085, -25.578743563858204 ], [ -47.135199773115254, -25.578739938445931 ], [ -47.135196508029289, -25.578736310429846 ], [ -47.135192704555855, -25.578733119207143 ], [ -47.135188903417671, -25.578729925853796 ], [ -47.135185170506901, -25.578726420469518 ], [ -47.135181439486765, -25.578722913360338 ], [ -47.135177703669598, -25.578719659437422 ], [ -47.135173969030362, -25.578716404439799 ], [ -47.13517049693337, -25.578713279227415 ], [ -47.135167025394253, -25.578710153506069 ], [ -47.135163159245209, -25.578706771632127 ], [ -47.135159293162978, -25.578703389697313 ], [ -47.135155427331668, -25.578700007533829 ], [ -47.135151560933203, -25.578696625887915 ], [ -47.135147893337333, -25.578693308749969 ], [ -47.135144224634807, -25.578689992621815 ], [ -47.135140492747006, -25.578686548508678 ], [ -47.135136759080893, -25.578683106018175 ], [ -47.135133026663645, -25.57867972459076 ], [ -47.135129291896646, -25.57867634530734 ], [ -47.135126155041121, -25.578673033770748 ], [ -47.135123015766631, -25.578669724441315 ], [ -47.135118885715201, -25.578666400632454 ], [ -47.135114751830315, -25.578663080321352 ], [ -47.135111153601464, -25.578659636721206 ], [ -47.135107551323188, -25.578656196815881 ], [ -47.135103949092411, -25.578653067878641 ], [ -47.135100342658163, -25.578649942776739 ], [ -47.135096093388569, -25.578645734450518 ], [ -47.135091836531814, -25.57864153304704 ], [ -47.135088697479702, -25.578638472325274 ], [ -47.135085553880891, -25.578635415752018 ], [ -47.13508175472797, -25.578632220592461 ], [ -47.135077949290618, -25.578629031166944 ], [ -47.135074355184408, -25.578625397200558 ], [ -47.135070753686392, -25.578621769978579 ], [ -47.13506715368829, -25.578618576803759 ], [ -47.13506354666017, -25.578615390043236 ], [ -47.13505957016352, -25.578611923948674 ], [ -47.135055584578822, -25.578608466146182 ], [ -47.135052228866293, -25.578605590712936 ], [ -47.135048866347027, -25.578602721490252 ], [ -47.135045137266353, -25.578599352573438 ], [ -47.135041398772003, -25.578595992245788 ], [ -47.13503780164833, -25.578592672045307 ], [ -47.135034195015123, -25.578589360521462 ], [ -47.135029053022002, -25.578585254301494 ], [ -47.135023892997438, -25.578581164533631 ], [ -47.135018714287035, -25.57857709181496 ], [ -47.135014853381691, -25.578573767366048 ], [ -47.135010980453096, -25.578570453887316 ], [ -47.135007640787883, -25.578567703526328 ], [ -47.135004292094756, -25.578564961402481 ], [ -47.134998569609706, -25.57856061428916 ], [ -47.134992821181527, -25.57855629084661 ], [ -47.134987045968401, -25.578551991842915 ], [ -47.134981243128493, -25.578547718046185 ], [ -47.13497541181998, -25.578543470224481 ], [ -47.134972204475616, -25.57854078379917 ], [ -47.134968986875514, -25.578538106731326 ], [ -47.134964665086777, -25.5785347741778 ], [ -47.134960325409267, -25.578531457946159 ], [ -47.134956329685416, -25.578528445056758 ], [ -47.134952318385203, -25.578525446379373 ], [ -47.134948522247726, -25.578522372878421 ], [ -47.134944710555217, -25.578519313570041 ], [ -47.134940452947582, -25.578516170295959 ], [ -47.134936176717503, -25.578513044013128 ] ] } }
]
}
