{
"type": "FeatureCollection",
"name": "amostra4_linhas_corrigidas",
"crs": { "type": "name", "properties": { "name": "urn:ogc:def:crs:OGC:1.3:CRS84" } },
"features": [
{ "type": "Feature", "properties": { "id_linha": 1, "comprimento_m": 4.637, "classificacao": "curva", "n_pontos": 3, "desvio_relativo": 0.07954 }, "geometry": { "type": "LineString", "coordinates": [ [ -35.172284769589957, -8.008478944654746 ], [ -35.172276604805219, -8.008486212673848 ], [ -35.172266984653177, -8.008492210744468 ], [ -35.172257997647215, -8.008495965958588 ], [ -35.17224831040734, -8.008498498690853 ] ] } },
{ "type": "Feature", "properties": { "id_linha": 2, "comprimento_m": 10.256, "classificacao": "curva", "n_pontos": 5, "desvio_relativo": 0.0754 }, "geometry": { "type": "LineString", "coordinates": [ [ -35.172328854454371, -8.008475272440107 ], [ -35.172321642372594, -8.00848404142056 ], [ -35.172313474097514, -8.008491817949897 ], [ -35.172304548416015, -8.008499498553372 ], [ -35.172294698797423, -8.008506001669755 ], [ -35.172285082444461, -8.008512732748049 ], [ -35.172274479559682, -8.008518310629265 ], [ -35.172264009824495, -8.008522729150213 ], [ -35.172252852052196, -8.008525958086203 ] ] } },
{ "type": "Feature", "properties": { "id_linha": 3, "comprimento_m": 15.474, "classificacao": "curva", "n_pontos": 8, "desvio_relativo": 0.13788 }, "geometry": { "type": "LineString", "coordinates": [ [ -35.172364592561102, -8.008473826566131 ], [ -35.172356586434887, -8.008487669985213 ], [ -35.172351438362696, -8.008496177856527 ], [ -35.172345609216606, -8.008504266286501 ], [ -35.172340493204175, -8.008512724816313 ], [ -35.17233463199598, -8.008520862586868 ], [ -35.172328675854388, -8.008527246234534 ], [ -35.172322240559737, -8.008533261843667 ], [ -35.172314584708133, -8.008539247486231 ], [ -35.172306436347327, -8.008544692682165 ], [ -35.172296148100607, -8.008550587687667 ], [ -35.172285256463518, -8.008555596984882 ], [ -35.172273811924192, -8.008558050637587 ], [ -35.172262208794869, -8.008559511856623 ] ] } },
{ "type": "Feature", "properties": { "id_linha": 4, "comprimento_m": 22.533, "classificacao": "curva", "n_pontos": 10, "desvio_relativo": 0.17047 }, "geometry": { "type": "LineString", "coordinates": [ [ -35.172397973643079, -8.008465385614652 ], [ -35.172393750901882, -8.00847691888854 ], [ -35.172388631487145, -8.008488039610878 ], [ -35.172383926909006, -8.008497212428752 ], [ -35.172378614914216, -8.008506040571632 ], [ -35.172374067852573, -8.008515397707258 ], [ -35.172368837013465, -8.008524508810176 ], [ -35.172361805143609, -8.008534656326676 ], [ -35.172353904282694, -8.00854431116533 ], [ -35.172345800047118, -8.008552385321622 ], [ -35.172337068096702, -8.008559910833021 ], [ -35.172328649120033, -8.008566111897677 ], [ -35.172319790225032, -8.008571789199715 ], [ -35.172309397235658, -8.008576910736528 ], [ -35.172298628171625, -8.008581300132789 ], [ -35.17228746109086, -8.00858481812754 ], [ -35.172276040014523, -8.008587542934128 ], [ -35.172264781908396, -8.008588495264323 ], [ -35.172253517246489, -8.008588676705997 ] ] } },
{ "type": "Feature", "properties": { "id_linha": 5, "comprimento_m": 27.82, "classificacao": "curva", "n_pontos": 13, "desvio_relativo": 0.19656 }, "geometry": { "type": "LineString", "coordinates": [ [ -35.172424819286547, -8.008470572779926 ], [ -35.172421515923624, -8.008482261333228 ], [ -35.172417428139589, -8.008493713806921 ], [ -35.172412951094188, -8.008503673686661 ], [ -35.172407880002304, -8.008513346012098 ], [ -35.172403292082677, -8.008523161115887 ], [ -35.172398090215829, -8.008532743166462 ], [ -35.172393372022896, -8.00854207231686 ], [ -35.172388067696438, -8.0085512085845 ], [ -35.172379849642049, -8.008562494669293 ], [ -35.17237314388143, -8.008570314255682 ], [ -35.172365081081779, -8.008577757531011 ], [ -35.172356567173765, -8.008584755604158 ], [ -35.172346487392502, -8.008590293397559 ], [ -35.172336127088201, -8.008595203920388 ], [ -35.172325167250349, -8.008599488999591 ], [ -35.172314007362338, -8.008603077969095 ], [ -35.172303310513954, -8.008606872512056 ], [ -35.172292388761363, -8.008610028744332 ], [ -35.17228057176623, -8.00861258888027 ], [ -35.172268601283797, -8.008614399608025 ], [ -35.172257021594646, -8.008615895224805 ], [ -35.172245329793874, -8.008616686055721 ] ] } },
{ "type": "Feature", "properties": { "id_linha": 6, "comprimento_m": 30.527, "classificacao": "curva", "n_pontos": 12, "desvio_relativo": 0.18848 }, "geometry": { "type": "LineString", "coordinates": [ [ -35.172454534972822, -8.008480902826141 ], [ -35.172450523005075, -8.008491671393381 ], [ -35.172445944511615, -8.008502171919245 ], [ -35.172441663312682, -8.008511991654252 ], [ -35.172436888586567, -8.008521577540625 ], [ -35.172432647865655, -8.008532065937128 ], [ -35.172427814826939, -8.008542376532372 ], [ -35.172423457568044, -8.008552728568668 ], [ -35.172418499418008, -8.008562940473364 ], [ -35.172411646484072, -8.008572338622644 ], [ -35.172404266971178, -8.008581399013853 ], [ -35.172396377634747, -8.008590092319901 ], [ -35.172388539870475, -8.008598349036626 ], [ -35.172380237247921, -8.008606236318078 ], [ -35.17237148730851, -8.008613728287306 ], [ -35.172361770906193, -8.008617808525095 ], [ -35.172351939052078, -8.008621399738685 ], [ -35.172340728881025, -8.008625998169544 ], [ -35.172329321168675, -8.008629964831176 ], [ -35.172318115528377, -8.0086338544242 ], [ -35.172306721116534, -8.008637136549726 ], [ -35.172295762900326, -8.008640310057185 ], [ -35.172284628134136, -8.008642920537801 ], [ -35.17227192506293, -8.008644534414209 ], [ -35.172259152097425, -8.008645413819965 ] ] } },
{ "type": "Feature", "properties": { "id_linha": 7, "comprimento_m": 35.745, "classificacao": "curva", "n_pontos": 15, "desvio_relativo": 0.19007 }, "geometry": { "type": "LineString", "coordinates": [ [ -35.172487868502245, -8.008476177514176 ], [ -35.172484542237193, -8.008486685586803 ], [ -35.172480751701919, -8.008496999080817 ], [ -35.17247644703216, -8.008507287183615 ], [ -35.172471683893257, -8.008517333618421 ], [ -35.17246715250446, -8.008527840540914 ], [ -35.172462120900533, -8.00853812696942 ], [ -35.17245806400971, -8.008547901826459 ], [ -35.172453554212552, -8.008557538234493 ], [ -35.172448675728788, -8.008568014216667 ], [ -35.172443257358161, -8.008578323119552 ], [ -35.172436638850833, -8.008587676250235 ], [ -35.172429565556911, -8.008596746217613 ], [ -35.172422578270115, -8.008605629395865 ], [ -35.172415151784016, -8.008614231935704 ], [ -35.172407065005707, -8.008622669062337 ], [ -35.17239854832593, -8.008630763344351 ], [ -35.172389172750414, -8.008636671714157 ], [ -35.1723795640617, -8.008642157508456 ], [ -35.172368585878687, -8.00864718083653 ], [ -35.172357423525689, -8.008651657161439 ], [ -35.172345948315247, -8.008655759241398 ], [ -35.172334328289018, -8.008659287696974 ], [ -35.172323636494198, -8.008664051268484 ], [ -35.172312682930965, -8.00866832853033 ], [ -35.172301202436564, -8.008670786732136 ], [ -35.172289629302007, -8.008672707861033 ], [ -35.17227689304692, -8.008673581635643 ], [ -35.172264171094383, -8.008673807772581 ] ] } },
{ "type": "Feature", "properties": { "id_linha": 8, "comprimento_m": 43.244, "classificacao": "curva", "n_pontos": 18, "desvio_relativo": 0.19249 }, "geometry": { "type": "LineString", "coordinates": [ [ -35.172525993360438, -8.008479404392975 ], [ -35.17252141153245, -8.008489940311453 ], [ -35.172516430377001, -8.008500197747782 ], [ -35.172512100667539, -8.008510710554006 ], [ -35.1725073566285, -8.00852099674457 ], [ -35.172504232441796, -8.008530531212296 ], [ -35.172500752841174, -8.008539966126605 ], [ -35.172495717148273, -8.008550931123029 ], [ -35.172490199487136, -8.008561677107691 ], [ -35.17248536996879, -8.008570994221033 ], [ -35.172480176975469, -8.008580142531539 ], [ -35.1724734133034, -8.008589963483628 ], [ -35.17246622867102, -8.008599491725306 ], [ -35.172459958341356, -8.00860905016293 ], [ -35.172453264782881, -8.008618387746592 ], [ -35.17244624463688, -8.008627024459461 ], [ -35.172438856954258, -8.008635409009592 ], [ -35.172431115833163, -8.008644051885156 ], [ -35.172422981408751, -8.008652413341975 ], [ -35.172413235484534, -8.008658893331562 ], [ -35.172403248425844, -8.00866496018636 ], [ -35.172392974071045, -8.00866935345706 ], [ -35.17238259046232, -8.008673315629027 ], [ -35.172371381771654, -8.008678777944384 ], [ -35.17235994879541, -8.008683738552687 ], [ -35.172349691913269, -8.008687537235256 ], [ -35.172339305688702, -8.008690932847593 ], [ -35.172328820166769, -8.008694732727305 ], [ -35.172318173342347, -8.008698121496604 ], [ -35.172306681846663, -8.008700318522317 ], [ -35.172295125653697, -8.008702036370627 ], [ -35.172283144610105, -8.008703548460851 ], [ -35.172271117321877, -8.00870454658383 ], [ -35.172258183087116, -8.008706088292648 ], [ -35.172245152037448, -8.008707034219647 ] ] } },
{ "type": "Feature", "properties": { "id_linha": 9, "comprimento_m": 47.802, "classificacao": "curva", "n_pontos": 20, "desvio_relativo": 0.19263 }, "geometry": { "type": "LineString", "coordinates": [ [ -35.172555329777381, -8.008481136325328 ], [ -35.1725529405565, -8.008492072119399 ], [ -35.172550158047748, -8.008502909380166 ], [ -35.172546044172691, -8.008513175707488 ], [ -35.172541579484509, -8.008523249564679 ], [ -35.172537004541347, -8.008534446015027 ], [ -35.172531998668454, -8.008545436291252 ], [ -35.172528120275409, -8.00855474226605 ], [ -35.172523933113283, -8.008563924289021 ], [ -35.172519120874476, -8.008574864356381 ], [ -35.172513868998074, -8.00858564091431 ], [ -35.172507675314449, -8.008594859909095 ], [ -35.172501158651087, -8.008603843075491 ], [ -35.172495228975606, -8.008613508277096 ], [ -35.17248892565118, -8.008622979792401 ], [ -35.172482356983984, -8.008631139859707 ], [ -35.172475508189308, -8.008639083430307 ], [ -35.172468725224924, -8.008648166616002 ], [ -35.172461577710685, -8.008657039252027 ], [ -35.172453315292159, -8.008665217483841 ], [ -35.172444735577116, -8.008673103386379 ], [ -35.17243525788853, -8.008681069096903 ], [ -35.172425453194123, -8.00868867484658 ], [ -35.172416407442441, -8.008693600548428 ], [ -35.172407226558249, -8.008698219649602 ], [ -35.172395986241526, -8.008703194839164 ], [ -35.172384596777491, -8.008707713662149 ], [ -35.172374585238764, -8.008712186249076 ], [ -35.172364425073596, -8.008716306973799 ], [ -35.172353431775903, -8.008720101368537 ], [ -35.172342314248404, -8.008723484338951 ], [ -35.172330807184032, -8.008725661042119 ], [ -35.172319266556379, -8.008727399215749 ], [ -35.172308025727112, -8.008729799139207 ], [ -35.17229670215719, -8.008731784189896 ], [ -35.172284947529135, -8.008732568419342 ], [ -35.172273200892867, -8.008732906675499 ], [ -35.172261730308087, -8.008734612485432 ], [ -35.172250165088066, -8.008735892629364 ] ] } },
{ "type": "Feature", "properties": { "id_linha": 10, "comprimento_m": 53.127, "classificacao": "curva", "n_pontos": 19, "desvio_relativo": 0.20683 }, "geometry": { "type": "LineString", "coordinates": [ [ -35.172587249085964, -8.008472213953421 ], [ -35.172584608601056, -8.00848374099386 ], [ -35.17258157326426, -8.008495142509663 ], [ -35.172578298752846, -8.008505390528855 ], [ -35.172574707036809, -8.008515502445205 ], [ -35.172570955964034, -8.008526215652044 ], [ -35.172566850444767, -8.008536780009139 ], [ -35.172562500061588, -8.008547843398009 ], [ -35.172557761840572, -8.008558740151415 ], [ -35.172554010421869, -8.008568965554334 ], [ -35.172549917131256, -8.008579088800007 ], [ -35.172544937798726, -8.008588864450985 ], [ -35.172539638118202, -8.008598480320387 ], [ -35.172533794445108, -8.008607566955927 ], [ -35.172527664601468, -8.008616458719128 ], [ -35.172521338056811, -8.008625546073342 ], [ -35.172514712606151, -8.008634425831216 ], [ -35.172507670242823, -8.008643982902781 ], [ -35.172500281006151, -8.008653304927615 ], [ -35.172494202771084, -8.008661905669296 ], [ -35.172487830130635, -8.008670348765966 ], [ -35.172481517883242, -8.008679177890947 ], [ -35.172474884070382, -8.008687851417303 ], [ -35.172466927409062, -8.008697347475779 ], [ -35.172458578124349, -8.008706608531805 ], [ -35.172444564183607, -8.008713663737424 ], [ -35.172430336119611, -8.008720038212708 ], [ -35.172415926756479, -8.008725727009788 ], [ -35.172404540889467, -8.008729755437148 ], [ -35.172393076130056, -8.008733360373524 ], [ -35.17238023797475, -8.008738553764463 ], [ -35.1723672136931, -8.008743217381147 ], [ -35.172354025246314, -8.008747344732807 ], [ -35.172340694817038, -8.008750930231626 ], [ -35.172327244772035, -8.008753969199855 ], [ -35.172315512318498, -8.008756479854272 ], [ -35.172303698920523, -8.008758575116346 ], [ -35.172292189975387, -8.008759451951494 ], [ -35.172280683918231, -8.008759935474419 ], [ -35.172269081250363, -8.008761510875599 ], [ -35.17225740646284, -8.008762686378645 ] ] } },
{ "type": "Feature", "properties": { "id_linha": 11, "comprimento_m": 58.565, "classificacao": "curva", "n_pontos": 24, "desvio_relativo": 0.1985 }, "geometry": { "type": "LineString", "coordinates": [ [ -35.172618035385149, -8.008475356174491 ], [ -35.172614886906786, -8.008486772800852 ], [ -35.172611384064183, -8.008498041218562 ], [ -35.172608365717196, -8.008509676535338 ], [ -35.172604971416312, -8.008521193540476 ], [ -35.172600715796278, -8.008531912087603 ], [ -35.172596136352347, -8.00854245982093 ], [ -35.172592247736631, -8.008552928474664 ], [ -35.172588041086094, -8.008563270107519 ], [ -35.172584396579119, -8.008573492815735 ], [ -35.172580440998999, -8.00858362157906 ], [ -35.172576136252985, -8.008594310731523 ], [ -35.172571483618327, -8.008604886446912 ], [ -35.172565440061305, -8.008613856492952 ], [ -35.172559146147762, -8.008622628387494 ], [ -35.172552456837977, -8.008632765089656 ], [ -35.172545433551143, -8.008642677094693 ], [ -35.172538849057283, -8.008651524498218 ], [ -35.172531998261086, -8.008660174108199 ], [ -35.172525916948217, -8.00866946917475 ], [ -35.172519529556446, -8.008678611320065 ], [ -35.172512228155966, -8.008687687469319 ], [ -35.172504620602268, -8.008696555859538 ], [ -35.172497321163249, -8.00870539211599 ], [ -35.172489717588725, -8.008714035940454 ], [ -35.172481425879866, -8.008721721652266 ], [ -35.172472887339254, -8.008729171162974 ], [ -35.172463099722563, -8.008734786953429 ], [ -35.172453175154033, -8.00874009241261 ], [ -35.172441913504372, -8.008745036902639 ], [ -35.172430545369323, -8.008749586430527 ], [ -35.17241915353393, -8.008753483167638 ], [ -35.172407697712039, -8.008756987567354 ], [ -35.172397305477389, -8.00876132516084 ], [ -35.172386795117504, -8.008765340187791 ], [ -35.172376785301722, -8.008770015495195 ], [ -35.172366617461968, -8.008774397955973 ], [ -35.172353572746673, -8.008779366102972 ], [ -35.17234031838111, -8.0087838496374 ], [ -35.172330894948303, -8.008785721564051 ], [ -35.172321435150593, -8.008787348024756 ], [ -35.172309689674627, -8.008789026965752 ], [ -35.172297910099985, -8.008790328340655 ], [ -35.17228628350496, -8.008791190567385 ], [ -35.172274650474087, -8.008791685875829 ], [ -35.172263044218191, -8.008793011838854 ], [ -35.172251378958784, -8.008793972321905 ] ] } },
{ "type": "Feature", "properties": { "id_linha": 12, "comprimento_m": 63.837, "classificacao": "curva", "n_pontos": 26, "desvio_relativo": 0.20407 }, "geometry": { "type": "LineString", "coordinates": [ [ -35.172650897504667, -8.008469231818427 ], [ -35.172648720487913, -8.00848109511332 ], [ -35.172646191251701, -8.008492868347954 ], [ -35.172644738653275, -8.008504012336786 ], [ -35.172642970540267, -8.008515128433215 ], [ -35.172639799945102, -8.00852582712586 ], [ -35.172636337050939, -8.008536420107028 ], [ -35.172632194119757, -8.008547359709583 ], [ -35.172627740665199, -8.008558153667595 ], [ -35.172624086811531, -8.008568843593423 ], [ -35.172620128696053, -8.008579434055406 ], [ -35.172615058994801, -8.008589325786931 ], [ -35.172609724409618, -8.008599056398422 ], [ -35.172605266768656, -8.008608699006789 ], [ -35.172600549158858, -8.008618228389915 ], [ -35.172594954664241, -8.008629158456944 ], [ -35.172589017335383, -8.00863992809216 ], [ -35.172582670270678, -8.008649469048427 ], [ -35.172576053456794, -8.008658824123119 ], [ -35.172569582012194, -8.008667895220922 ], [ -35.172562856843548, -8.008676788417416 ], [ -35.172556394174315, -8.008686084610616 ], [ -35.172549654283522, -8.008695217167496 ], [ -35.172542594335646, -8.008704979278827 ], [ -35.17253521673733, -8.00871456072344 ], [ -35.172527653513477, -8.008723163500854 ], [ -35.172519830430623, -8.008731570707136 ], [ -35.172511776820535, -8.008739710482105 ], [ -35.17250347753204, -8.008747640489432 ], [ -35.172494441563593, -8.008755093149066 ], [ -35.172485185509046, -8.008762294327214 ], [ -35.172474637361056, -8.008766164169128 ], [ -35.172464050185773, -8.008769715221346 ], [ -35.172452264719944, -8.008772443668471 ], [ -35.172440498389825, -8.008774785612649 ], [ -35.172429663645119, -8.008779064511035 ], [ -35.172418741113162, -8.00878301224715 ], [ -35.172408417991626, -8.008788091926162 ], [ -35.172397941506375, -8.008792875764582 ], [ -35.172387948684076, -8.008798933009293 ], [ -35.172377728181914, -8.008804720275592 ], [ -35.172366861640164, -8.008809161762033 ], [ -35.172355844130877, -8.008813293833791 ], [ -35.172344074061996, -8.008814263310386 ], [ -35.172332336909989, -8.008814880782912 ], [ -35.17232033455717, -8.008816086544249 ], [ -35.172308334506056, -8.008816926542531 ], [ -35.172296828791843, -8.008817890288352 ], [ -35.172285316523229, -8.008818519128893 ], [ -35.172273835833089, -8.008820411064603 ], [ -35.172262274761685, -8.008821969540117 ] ] } },
{ "type": "Feature", "properties": { "id_linha": 13, "comprimento_m": 68.373, "classificacao": "curva", "n_pontos": 13, "desvio_relativo": 0.18543 }, "geometry": { "type": "LineString", "coordinates": [ [ -35.172683109914743, -8.008475642155377 ], [ -35.17268139625665, -8.008486564137121 ], [ -35.172679405914621, -8.008497432142402 ], [ -35.1726774431392, -8.008507885996098 ], [ -35.17267522456234, -8.008518287572718 ], [ -35.172673278516477, -8.00852989480553 ], [ -35.172671013491772, -8.008541465288234 ], [ -35.17266635423119, -8.008551244017211 ], [ -35.172661468351748, -8.008560865280646 ], [ -35.172656829961134, -8.008572034617645 ], [ -35.172651887548504, -8.008583052014766 ], [ -35.172645298201516, -8.008598370505567 ], [ -35.172638122394851, -8.00861341778162 ], [ -35.172630371310056, -8.008628171555626 ], [ -35.172622056980344, -8.008642609996354 ], [ -35.172613192271861, -8.008656711761022 ], [ -35.172603790863853, -8.008670456026787 ], [ -35.172593867227555, -8.008683822521496 ], [ -35.172583436603958, -8.008696791553632 ], [ -35.172572514980359, -8.008709344041256 ], [ -35.172561119065961, -8.008721461540079 ], [ -35.17254926626623, -8.008733126270601 ], [ -35.172536974656403, -8.008744321144171 ], [ -35.172524262953871, -8.008755029787981 ], [ -35.17251115048974, -8.008765236569014 ], [ -35.172497657179392, -8.008774926616889 ], [ -35.172483803492284, -8.00878408584547 ], [ -35.172469610420876, -8.008792700973336 ], [ -35.172455099448847, -8.008800759543032 ], [ -35.172440292518559, -8.008808249939033 ], [ -35.172425211997904, -8.008815161404504 ], [ -35.172409880646498, -8.008821484056725 ], [ -35.172394321581358, -8.008827208901117 ], [ -35.172383572701158, -8.008831872206905 ], [ -35.17237267620277, -8.008836249739671 ], [ -35.172361900030801, -8.008838355473388 ], [ -35.172351096210406, -8.008840181548736 ], [ -35.172339579510776, -8.008841368064308 ], [ -35.172328072279676, -8.008842238597195 ], [ -35.172316077075337, -8.008843664659059 ], [ -35.172304063927179, -8.008844748812804 ], [ -35.172292085710218, -8.008846638300936 ], [ -35.17228004368507, -8.00884818793911 ], [ -35.172268311877403, -8.008849607635316 ], [ -35.172256524570109, -8.008850703791797 ] ] } },
{ "type": "Feature", "properties": { "id_linha": 14, "comprimento_m": 73.536, "classificacao": "curva", "n_pontos": 30, "desvio_relativo": 0.19649 }, "geometry": { "type": "LineString", "coordinates": [ [ -35.17271532232791, -8.008482052486837 ], [ -35.172713359719353, -8.008493439963875 ], [ -35.172711117207626, -8.008504765746865 ], [ -35.172708656359113, -8.008515223063949 ], [ -35.172705957383705, -8.008525609893757 ], [ -35.172703016387018, -8.008536764677917 ], [ -35.172699801252826, -8.008547836127065 ], [ -35.172695136864753, -8.008557843456865 ], [ -35.172690250172252, -8.008567700578334 ], [ -35.172685835429206, -8.008577932289638 ], [ -35.17268118238362, -8.008588035128311 ], [ -35.17267653106817, -8.008598729068822 ], [ -35.172671613467799, -8.008609292949338 ], [ -35.172667825708118, -8.008620316782874 ], [ -35.172663747966944, -8.008631267203606 ], [ -35.172657997060654, -8.008641614132042 ], [ -35.172651986390001, -8.008651802946643 ], [ -35.172646357198481, -8.008661793264924 ], [ -35.17264047834427, -8.008671644824226 ], [ -35.172632409406191, -8.008681898169202 ], [ -35.172624071970738, -8.008691894732674 ], [ -35.172618434848999, -8.008700481272545 ], [ -35.172612599580191, -8.008708949865472 ], [ -35.172605982394387, -8.008717078209729 ], [ -35.172599182121601, -8.008725053512812 ], [ -35.172593320994373, -8.008734793237734 ], [ -35.172587190769192, -8.008744425286135 ], [ -35.17258130639329, -8.008751842270408 ], [ -35.172575258851197, -8.00875915248792 ], [ -35.172567805930854, -8.008768089028033 ], [ -35.172560108247119, -8.008776861981827 ], [ -35.172550686175015, -8.008784425800279 ], [ -35.172541079395543, -8.008791739589785 ], [ -35.172531779997826, -8.008798832395112 ], [ -35.172522307047615, -8.008805691102769 ], [ -35.172512017949082, -8.008811399261635 ], [ -35.172501613406489, -8.008816833299864 ], [ -35.172490580987386, -8.008821270694694 ], [ -35.172479484739462, -8.008825404051906 ], [ -35.17246968216125, -8.008829589790313 ], [ -35.172459808206909, -8.00883353855906 ], [ -35.172449281181891, -8.008838196254493 ], [ -35.172438652068756, -8.008842585048731 ], [ -35.172426550086847, -8.008847844666809 ], [ -35.172414301017447, -8.008852755997871 ], [ -35.172403423290021, -8.008857528657984 ], [ -35.17239240804475, -8.008862026245474 ], [ -35.172382371914146, -8.008865043942613 ], [ -35.17237227198747, -8.008867832814236 ], [ -35.172359781761848, -8.008869953384583 ], [ -35.172347267320866, -8.008871725119672 ], [ -35.172336241924739, -8.008872661729622 ], [ -35.172325227807292, -8.008873328997009 ], [ -35.172313237833514, -8.008874975479856 ], [ -35.172301213505648, -8.008876303668783 ], [ -35.172290214887404, -8.008878400130957 ], [ -35.172279144268522, -8.0088802298252 ], [ -35.172267417355293, -8.00888210262843 ], [ -35.172255613259544, -8.008883674591214 ] ] } },
{ "type": "Feature", "properties": { "id_linha": 15, "comprimento_m": 78.952, "classificacao": "curva", "n_pontos": 32, "desvio_relativo": 0.19665 }, "geometry": { "type": "LineString", "coordinates": [ [ -35.172749741306831, -8.008468978182735 ], [ -35.172747529338068, -8.008480836664322 ], [ -35.172745035067841, -8.008492614716149 ], [ -35.1727428170582, -8.008503769063838 ], [ -35.172740346656724, -8.008514857877925 ], [ -35.17273763612841, -8.008525547087878 ], [ -35.172734691655066, -8.008536160840864 ], [ -35.172731246462234, -8.008546620317254 ], [ -35.172727574881634, -8.008556982419725 ], [ -35.172722661290486, -8.008567221020641 ], [ -35.172717528622528, -8.008577305687579 ], [ -35.172713838727084, -8.008587293085426 ], [ -35.172709934493405, -8.008597192708844 ], [ -35.172705153708733, -8.008608001048819 ], [ -35.172700117989848, -8.008618679939081 ], [ -35.172695826656984, -8.008629244063485 ], [ -35.172691285902843, -8.00863971399607 ], [ -35.172687113056035, -8.008649691456881 ], [ -35.172682713290875, -8.008659589730822 ], [ -35.17267658584155, -8.008669583849501 ], [ -35.1726702267718, -8.008679420325828 ], [ -35.172663601852804, -8.008688252775819 ], [ -35.172656791490667, -8.008696917349459 ], [ -35.172649932367904, -8.008706445409222 ], [ -35.172642849137773, -8.008715802100477 ], [ -35.172636238562305, -8.008725321836861 ], [ -35.172629396019822, -8.008734692492631 ], [ -35.172622306142678, -8.008744676615807 ], [ -35.172614952534786, -8.008754500512456 ], [ -35.172608705488386, -8.008763078988942 ], [ -35.172602257042413, -8.008771541537554 ], [ -35.172595285715218, -8.008780644576225 ], [ -35.172588080458745, -8.008789610661946 ], [ -35.172579811475195, -8.008797039853135 ], [ -35.172571378462294, -8.008804282847192 ], [ -35.172561525628048, -8.008811901624915 ], [ -35.17255149195487, -8.008819266695513 ], [ -35.172541451560818, -8.008826012247726 ], [ -35.172531260804597, -8.008832504595357 ], [ -35.172521699973061, -8.008837614224928 ], [ -35.1725120497359, -8.008842502579231 ], [ -35.17250175047711, -8.008846688833719 ], [ -35.172491394725355, -8.008850625804005 ], [ -35.172479642438134, -8.008855992153299 ], [ -35.172467774561149, -8.00886103745338 ], [ -35.172457488214889, -8.008865451586551 ], [ -35.172447113602374, -8.008869625129677 ], [ -35.172437081981315, -8.008874498735429 ], [ -35.172426929991865, -8.008879147360549 ], [ -35.172415196725531, -8.008884271664519 ], [ -35.172403315764413, -8.008889094543758 ], [ -35.172392430388278, -8.008893043767008 ], [ -35.172381443591348, -8.008896739190055 ], [ -35.172370785866981, -8.008898361237403 ], [ -35.172360120099114, -8.00889974490711 ], [ -35.172347620942766, -8.008900692619283 ], [ -35.172335145149773, -8.008901314925545 ], [ -35.172323881737277, -8.008902478323957 ], [ -35.172312610449062, -8.008903377614573 ], [ -35.172301113628222, -8.00890500787081 ], [ -35.172289574620223, -8.008906363571189 ], [ -35.172277593074547, -8.00890776693929 ], [ -35.17226556625819, -8.008908873780776 ] ] } },
{ "type": "Feature", "properties": { "id_linha": 16, "comprimento_m": 71.162, "classificacao": "curva", "n_pontos": 29, "desvio_relativo": 0.15894 }, "geometry": { "type": "LineString", "coordinates": [ [ -35.172779558050969, -8.008471412406838 ], [ -35.172777814835293, -8.008481752039124 ], [ -35.172775868921299, -8.008492041254264 ], [ -35.172773164237981, -8.008504247072189 ], [ -35.172770175295028, -8.008516363190113 ], [ -35.172767338585651, -8.008527401288472 ], [ -35.172764266763522, -8.008538360018939 ], [ -35.172761795410594, -8.008549041010488 ], [ -35.172759101001539, -8.008559668624894 ], [ -35.172755276865274, -8.008569194816294 ], [ -35.172751274145739, -8.008578623913198 ], [ -35.172746357264955, -8.008589088166518 ], [ -35.172741221944612, -8.008599411639574 ], [ -35.172737163721315, -8.008609861993827 ], [ -35.172732882073539, -8.008620219112835 ], [ -35.172728336548701, -8.008630669566674 ], [ -35.172723563724098, -8.008641015301007 ], [ -35.172719631847571, -8.0086514549255 ], [ -35.172715468467231, -8.008661825594103 ], [ -35.172709822041455, -8.008671812956131 ], [ -35.17270396042791, -8.008681667476354 ], [ -35.172697580683391, -8.008691425629126 ], [ -35.172690990614505, -8.008701027973421 ], [ -35.172684359599693, -8.008709621891439 ], [ -35.172677561276849, -8.008718060541481 ], [ -35.172670946011458, -8.008728044335015 ], [ -35.172664096275447, -8.008737879850688 ], [ -35.172657719665416, -8.008746927854167 ], [ -35.17265114428308, -8.008755846972752 ], [ -35.172644530731411, -8.008765357159001 ], [ -35.172637691162244, -8.008774737365208 ], [ -35.172630462632611, -8.008783552873206 ], [ -35.172623032772982, -8.008792220278801 ], [ -35.172615565651626, -8.008801266011989 ], [ -35.172607879198381, -8.008810162005343 ], [ -35.172598814684015, -8.008818059198671 ], [ -35.172589575288619, -8.008825744767854 ], [ -35.17258148529416, -8.008832699643913 ], [ -35.172573252104726, -8.008839492270798 ], [ -35.172563208610519, -8.008846464002572 ], [ -35.172553015009449, -8.008853194629998 ], [ -35.172541988150478, -8.008859245605434 ], [ -35.172530844732051, -8.008865016587219 ], [ -35.172521033548421, -8.008869191267781 ], [ -35.172511168196522, -8.008873151099671 ], [ -35.172499160611459, -8.008878048136847 ], [ -35.172487070679317, -8.008882628194453 ], [ -35.172476786440484, -8.008887733467969 ], [ -35.172466391886211, -8.008892609243793 ], [ -35.172456599475645, -8.00889747508624 ], [ -35.172446697512321, -8.008902137119634 ], [ -35.172435927414753, -8.008906546062319 ], [ -35.172425058069869, -8.008910713506699 ], [ -35.172412823891385, -8.008914905548204 ], [ -35.172400489137267, -8.008918791574912 ], [ -35.172389470471522, -8.008921573324169 ], [ -35.172378402062392, -8.008924111113965 ] ] } },
{ "type": "Feature", "properties": { "id_linha": 17, "comprimento_m": 55.858, "classificacao": "curva", "n_pontos": 23, "desvio_relativo": 0.12351 }, "geometry": { "type": "LineString", "coordinates": [ [ -35.172792667277015, -8.008555874993181 ], [ -35.172789693866797, -8.008565394538168 ], [ -35.172786552757579, -8.008574850030522 ], [ -35.172781626284504, -8.008584963595942 ], [ -35.172776509475668, -8.008594941073607 ], [ -35.17277170844077, -8.008605224368388 ], [ -35.172766706352704, -8.008615383279771 ], [ -35.17276264303122, -8.008625888059587 ], [ -35.172758364997918, -8.008636306868675 ], [ -35.17275369141737, -8.008646754694675 ], [ -35.172748802031414, -8.008657100237251 ], [ -35.172744379156711, -8.008668005455219 ], [ -35.172739716413894, -8.008678828161448 ], [ -35.172735284289374, -8.008688336892563 ], [ -35.17273066645339, -8.00869776934235 ], [ -35.172723307988363, -8.008708231454921 ], [ -35.172715721858552, -8.008718500643619 ], [ -35.172708108695055, -8.008727332311446 ], [ -35.172700329625158, -8.008735975101343 ], [ -35.17269443255951, -8.008744787596713 ], [ -35.172688362056732, -8.008753489054035 ], [ -35.172681735332098, -8.008762536183411 ], [ -35.172674920827042, -8.008771450535527 ], [ -35.172668303148079, -8.008781189969596 ], [ -35.172661461763795, -8.008790805386935 ], [ -35.17265508293243, -8.008799611201988 ], [ -35.172648515709916, -8.008808308051224 ], [ -35.172641650536235, -8.008817114066524 ], [ -35.172634591176141, -8.008825799429262 ], [ -35.172625273640548, -8.008833462739275 ], [ -35.172615803971809, -8.008840912094856 ], [ -35.17260698212116, -8.008848799249748 ], [ -35.172597989297593, -8.008856500500478 ], [ -35.172588553938652, -8.008863693346347 ], [ -35.172578969354696, -8.008870681426165 ], [ -35.172569414014482, -8.00887763999291 ], [ -35.172559710733083, -8.008884395071135 ], [ -35.172549529225471, -8.008888800777804 ], [ -35.172539294394298, -8.008892985579431 ], [ -35.17252801671475, -8.00889786636926 ], [ -35.172516664591456, -8.00890247960637 ], [ -35.172505633443855, -8.008906890736844 ], [ -35.172494535913003, -8.008911050359153 ], [ -35.172483021949496, -8.008915697372737 ], [ -35.172471422810872, -8.008920074280043 ] ] } },
{ "type": "Feature", "properties": { "id_linha": 18, "comprimento_m": 40.765, "classificacao": "curva", "n_pontos": 17, "desvio_relativo": 0.08157 }, "geometry": { "type": "LineString", "coordinates": [ [ -35.172787642018086, -8.008642683337602 ], [ -35.172783088206181, -8.008653593161148 ], [ -35.172778311787454, -8.008664408443272 ], [ -35.172774002692215, -8.008675079711121 ], [ -35.172769476735418, -8.008685674733215 ], [ -35.172764063656501, -8.008695654115519 ], [ -35.172758457938507, -8.008705522261421 ], [ -35.172752316580464, -8.008715968631522 ], [ -35.172745959537458, -8.008726281776246 ], [ -35.172739315987492, -8.008734171142645 ], [ -35.172732548032613, -8.008741920977391 ], [ -35.172725794247491, -8.008751552204272 ], [ -35.172718847330984, -8.008761040784286 ], [ -35.172712096389901, -8.008770668039173 ], [ -35.172705146626036, -8.008780160589806 ], [ -35.172698884759278, -8.008789432180542 ], [ -35.172692433309841, -8.008798594993086 ], [ -35.17268568309138, -8.008807634611921 ], [ -35.172678747457113, -8.008816553653295 ], [ -35.172671875773879, -8.00882535881863 ], [ -35.172664822925498, -8.008834045033861 ], [ -35.172656487065211, -8.008842858164797 ], [ -35.172647962959196, -8.008851502558043 ], [ -35.172638887699435, -8.008859157371525 ], [ -35.172629664991419, -8.008866620867364 ], [ -35.172622303480878, -8.008874028265172 ], [ -35.1726147976348, -8.00888131421568 ], [ -35.172603898955757, -8.008889445797911 ], [ -35.172592818482798, -8.008897319115192 ], [ -35.172582767232875, -8.008903811839385 ], [ -35.17257259326891, -8.00891009256188 ], [ -35.172563514668177, -8.008914716586762 ], [ -35.172554372557961, -8.008919172920891 ] ] } },
{ "type": "Feature", "properties": { "id_linha": 19, "comprimento_m": 29.962, "classificacao": "curva", "n_pontos": 12, "desvio_relativo": 0.04694 }, "geometry": { "type": "LineString", "coordinates": [ [ -35.172793680118403, -8.008706160722529 ], [ -35.17278863657365, -8.008717178224481 ], [ -35.172783368435915, -8.00872810677245 ], [ -35.172777213945643, -8.008737154262903 ], [ -35.172770905694925, -8.008746079546453 ], [ -35.172763221486349, -8.008754728773575 ], [ -35.172755395611844, -8.008763204255747 ], [ -35.172750466053436, -8.008771717527063 ], [ -35.172745392429412, -8.008780160209891 ], [ -35.172737719523923, -8.008789907663413 ], [ -35.172729854109569, -8.008799491087572 ], [ -35.172723954007026, -8.008808757863202 ], [ -35.172717874652051, -8.008817933956118 ], [ -35.172711726740069, -8.00882627115627 ], [ -35.172705429726683, -8.008834513352921 ], [ -35.172697410437472, -8.008843013255303 ], [ -35.172689231755335, -8.00885135731032 ], [ -35.172678731442687, -8.008862847904185 ], [ -35.172667928935788, -8.008874081657112 ], [ -35.172656830557607, -8.00888505067392 ], [ -35.172648247680172, -8.008893391615016 ], [ -35.172639493233184, -8.008901573640067 ], [ -35.172631637286642, -8.008908282308211 ], [ -35.172623665227242, -8.008914862332581 ] ] } },
{ "type": "Feature", "properties": { "id_linha": 20, "comprimento_m": 20.166, "classificacao": "curva", "n_pontos": 9, "desvio_relativo": 0.03928 }, "geometry": { "type": "LineString", "coordinates": [ [ -35.172782741433636, -8.008777106997204 ], [ -35.172775977200637, -8.008786498987666 ], [ -35.172769046677288, -8.008795762350989 ], [ -35.172761914772913, -8.00880457292763 ], [ -35.172754632918057, -8.008813248097347 ], [ -35.172747993682037, -8.008822285193054 ], [ -35.172741191689525, -8.008831209583839 ], [ -35.172734065433914, -8.008840246743922 ], [ -35.172726771980699, -8.008849159784454 ], [ -35.172720141264911, -8.008858887361432 ], [ -35.172713312915832, -8.008868514639499 ], [ -35.172706188381802, -8.008877081839909 ], [ -35.172698905087358, -8.008885535923092 ], [ -35.172690554244326, -8.008892946347077 ], [ -35.172682080779396, -8.008900206707777 ], [ -35.172673243129417, -8.008907617953154 ], [ -35.172664277990854, -8.008914866205641 ] ] } },
{ "type": "Feature", "properties": { "id_linha": 21, "comprimento_m": 12.55, "classificacao": "curva", "n_pontos": 6, "desvio_relativo": 0.02835 }, "geometry": { "type": "LineString", "coordinates": [ [ -35.172785843150407, -8.008821504966628 ], [ -35.172779442849766, -8.008830307611364 ], [ -35.1727728971061, -8.00883900764074 ], [ -35.172766010371454, -8.0088480424391 ], [ -35.172758966638376, -8.008856963486314 ], [ -35.172752084934075, -8.008866575878802 ], [ -35.172745021309254, -8.008876080473238 ], [ -35.172737648958446, -8.008884996341633 ], [ -35.17273011532928, -8.008893792802903 ], [ -35.172722005810279, -8.008901432780247 ], [ -35.172713774318282, -8.008908933690059 ] ] } },
{ "type": "Feature", "properties": { "id_linha": 22, "comprimento_m": 9.879, "classificacao": "curva", "n_pontos": 5, "desvio_relativo": 0.0404 }, "geometry": { "type": "LineString", "coordinates": [ [ -35.172794681060957, -8.00885737536392 ], [ -35.172788768510202, -8.008866172044119 ], [ -35.172782713491742, -8.008874889322698 ], [ -35.17277570548346, -8.008884500224655 ], [ -35.172768523544072, -8.008894003490418 ], [ -35.172761880977184, -8.008902914275964 ], [ -35.172755085281068, -8.008911732748786 ], [ -35.17274684968406, -8.008919138400955 ], [ -35.172738505594076, -8.008926406359972 ] ] } }
]
}
