{
"type": "FeatureCollection",
"name": "amostra5_linhas_corrigidas",
"crs": { "type": "name", "properties": { "name": "urn:ogc:def:crs:OGC:1.3:CRS84" } },
"features": [
{ "type": "Feature", "properties": { "id_linha": 1, "comprimento_m": 102.522, "classificacao": "reta", "n_pontos": 41, "desvio_relativo": 0.0 }, "geometry": { "type": "LineString", "coordinates": [ [ -57.711845781343676, -19.304998418018656 ], [ -57.71096100063945, -19.304607694785421 ] ] } },
{ "type": "Feature", "properties": { "id_linha": 2, "comprimento_m": 104.79, "classificacao": "reta", "n_pontos": 42, "desvio_relativo": 0.0 }, "geometry": { "type": "LineString", "coordinates": [ [ -57.711875556037121, -19.304976645840849 ], [ -57.710971205173216, -19.304577280385416 ] ] } },
{ "type": "Feature", "properties": { "id_linha": 3, "comprimento_m": 104.547, "classificacao": "reta", "n_pontos": 40, "desvio_relativo": 0.0 }, "geometry": { "type": "LineString", "coordinates": [ [ -57.711886190651441, -19.304946421386035 ], [ -57.710983936187738, -19.304547981701006 ] ] } },
{ "type": "Feature", "properties": { "id_linha": 4, "comprimento_m": 104.932, "classificacao": "reta", "n_pontos": 40, "desvio_relativo": 0.0 }, "geometry": { "type": "LineString", "coordinates": [ [ -57.711899541585346, -19.304917396461612 ], [ -57.710993962768129, -19.304517488717469 ] ] } },
{ "type": "Feature", "properties": { "id_linha": 5, "comprimento_m": 103.019, "classificacao": "reta", "n_pontos": 39, "desvio_relativo": 0.0 }, "geometry": { "type": "LineString", "coordinates": [ [ -57.711897124263146, -19.304881408260325 ], [ -57.711008051424976, -19.304488789581189 ] ] } },
{ "type": "Feature", "properties": { "id_linha": 6, "comprimento_m": 103.509, "classificacao": "reta", "n_pontos": 39, "desvio_relativo": 0.0 }, "geometry": { "type": "LineString", "coordinates": [ [ -57.711918893772264, -19.30485610098977 ], [ -57.71102559564445, -19.304461616450617 ] ] } },
{ "type": "Feature", "properties": { "id_linha": 7, "comprimento_m": 103.566, "classificacao": "reta", "n_pontos": 39, "desvio_relativo": 0.0 }, "geometry": { "type": "LineString", "coordinates": [ [ -57.711931815136715, -19.304826886370368 ], [ -57.711038024092694, -19.304432184154862 ] ] } },
{ "type": "Feature", "properties": { "id_linha": 8, "comprimento_m": 103.029, "classificacao": "reta", "n_pontos": 39, "desvio_relativo": 0.0 }, "geometry": { "type": "LineString", "coordinates": [ [ -57.711940250009839, -19.304795690512872 ], [ -57.711051097914385, -19.304403036862382 ] ] } },
{ "type": "Feature", "properties": { "id_linha": 9, "comprimento_m": 105.035, "classificacao": "reta", "n_pontos": 41, "desvio_relativo": 0.0 }, "geometry": { "type": "LineString", "coordinates": [ [ -57.71196543002511, -19.304771889328123 ], [ -57.711058959204259, -19.304371587674396 ] ] } },
{ "type": "Feature", "properties": { "id_linha": 10, "comprimento_m": 102.655, "classificacao": "reta", "n_pontos": 36, "desvio_relativo": 0.0 }, "geometry": { "type": "LineString", "coordinates": [ [ -57.711960084721298, -19.304734608132591 ], [ -57.711074156854352, -19.304343378284081 ] ] } },
{ "type": "Feature", "properties": { "id_linha": 11, "comprimento_m": 103.774, "classificacao": "reta", "n_pontos": 40, "desvio_relativo": 0.0 }, "geometry": { "type": "LineString", "coordinates": [ [ -57.711991824436851, -19.30471370372069 ], [ -57.711096241588208, -19.30431821028694 ] ] } },
{ "type": "Feature", "properties": { "id_linha": 12, "comprimento_m": 103.072, "classificacao": "reta", "n_pontos": 41, "desvio_relativo": 0.0 }, "geometry": { "type": "LineString", "coordinates": [ [ -57.711999887991773, -19.304682343893386 ], [ -57.711110361550986, -19.304289524983204 ] ] } },
{ "type": "Feature", "properties": { "id_linha": 13, "comprimento_m": 101.892, "classificacao": "reta", "n_pontos": 39, "desvio_relativo": 0.0 }, "geometry": { "type": "LineString", "coordinates": [ [ -57.71200604335295, -19.304650141406658 ], [ -57.711126697906273, -19.304261818457363 ] ] } },
{ "type": "Feature", "properties": { "id_linha": 14, "comprimento_m": 102.999, "classificacao": "reta", "n_pontos": 44, "desvio_relativo": 0.0 }, "geometry": { "type": "LineString", "coordinates": [ [ -57.712021863493163, -19.304622206897303 ], [ -57.711132970723703, -19.30422966779301 ] ] } },
{ "type": "Feature", "properties": { "id_linha": 15, "comprimento_m": 104.12, "classificacao": "reta", "n_pontos": 38, "desvio_relativo": 0.0 }, "geometry": { "type": "LineString", "coordinates": [ [ -57.712038293888405, -19.304594541878224 ], [ -57.711139724814934, -19.30419772966383 ] ] } },
{ "type": "Feature", "properties": { "id_linha": 16, "comprimento_m": 106.054, "classificacao": "reta", "n_pontos": 47, "desvio_relativo": 0.0 }, "geometry": { "type": "LineString", "coordinates": [ [ -57.712062072228967, -19.304570121719678 ], [ -57.711146814740786, -19.304165939842779 ] ] } },
{ "type": "Feature", "properties": { "id_linha": 17, "comprimento_m": 102.953, "classificacao": "reta", "n_pontos": 42, "desvio_relativo": 0.0 }, "geometry": { "type": "LineString", "coordinates": [ [ -57.712056753484049, -19.30453285226109 ], [ -57.711168257518466, -19.304140488359533 ] ] } },
{ "type": "Feature", "properties": { "id_linha": 18, "comprimento_m": 105.75, "classificacao": "reta", "n_pontos": 38, "desvio_relativo": 0.0 }, "geometry": { "type": "LineString", "coordinates": [ [ -57.712090429768907, -19.304512803046773 ], [ -57.711177794225186, -19.304109779059228 ] ] } },
{ "type": "Feature", "properties": { "id_linha": 19, "comprimento_m": 103.143, "classificacao": "reta", "n_pontos": 39, "desvio_relativo": 0.0 }, "geometry": { "type": "LineString", "coordinates": [ [ -57.712088422228554, -19.304476995822053 ], [ -57.711198280636751, -19.30408390523883 ] ] } },
{ "type": "Feature", "properties": { "id_linha": 20, "comprimento_m": 103.175, "classificacao": "reta", "n_pontos": 41, "desvio_relativo": 0.0 }, "geometry": { "type": "LineString", "coordinates": [ [ -57.712100606901544, -19.304447455893232 ], [ -57.71121019510506, -19.304054245979671 ] ] } },
{ "type": "Feature", "properties": { "id_linha": 21, "comprimento_m": 100.919, "classificacao": "reta", "n_pontos": 42, "desvio_relativo": 0.0 }, "geometry": { "type": "LineString", "coordinates": [ [ -57.712089026824202, -19.304407421425267 ], [ -57.711218081969932, -19.304022808099127 ] ] } },
{ "type": "Feature", "properties": { "id_linha": 22, "comprimento_m": 103.588, "classificacao": "reta", "n_pontos": 43, "desvio_relativo": 0.0 }, "geometry": { "type": "LineString", "coordinates": [ [ -57.712122219903925, -19.30438715883469 ], [ -57.711228245878068, -19.303992375780428 ] ] } },
{ "type": "Feature", "properties": { "id_linha": 23, "comprimento_m": 105.946, "classificacao": "reta", "n_pontos": 36, "desvio_relativo": 0.0 }, "geometry": { "type": "LineString", "coordinates": [ [ -57.712154808643618, -19.304366629364875 ], [ -57.711240479896482, -19.303962857640439 ] ] } },
{ "type": "Feature", "properties": { "id_linha": 24, "comprimento_m": 104.333, "classificacao": "reta", "n_pontos": 39, "desvio_relativo": 0.0 }, "geometry": { "type": "LineString", "coordinates": [ [ -57.71215644490259, -19.304332431250991 ], [ -57.71125603706551, -19.303934807032007 ] ] } },
{ "type": "Feature", "properties": { "id_linha": 25, "comprimento_m": 102.575, "classificacao": "reta", "n_pontos": 44, "desvio_relativo": 0.0 }, "geometry": { "type": "LineString", "coordinates": [ [ -57.712171009815023, -19.304303942443759 ], [ -57.711285774762729, -19.303913018660555 ] ] } },
{ "type": "Feature", "properties": { "id_linha": 26, "comprimento_m": 105.184, "classificacao": "reta", "n_pontos": 41, "desvio_relativo": 0.0 }, "geometry": { "type": "LineString", "coordinates": [ [ -57.712196015620613, -19.304280064345594 ], [ -57.711288267747584, -19.303879198804882 ] ] } },
{ "type": "Feature", "properties": { "id_linha": 27, "comprimento_m": 101.434, "classificacao": "reta", "n_pontos": 40, "desvio_relativo": 0.0 }, "geometry": { "type": "LineString", "coordinates": [ [ -57.712189349276485, -19.304242199797393 ], [ -57.711313959566006, -19.303855623742368 ] ] } }
]
}
